street_address,city,state,postal_code,country,street_number,street_suffix
2616 Armistice Place,Niquinohomo,,,Nicaragua,22,Court
644 Riverside Trail,Berber,,,Sudan,6317,Way
71260 Anhalt Alley,Jorok Dalam,,,Indonesia,7,Plaza
9668 Porter Junction,Brive-la-Gaillarde,Limousin,19117 CEDEX,France,612,Street
90898 Garrison Hill,Pankshin,,,Nigeria,50,Avenue
76 Myrtle Crossing,Xianyan,,,China,04,Hill
04088 Carberry Court,Siumate,,,Indonesia,7890,Place
085 Cody Alley,Darkovice,,747 17,Czech Republic,62362,Parkway
2 Elmside Hill,Urrao,,056838,Colombia,6511,Hill
9956 Derek Park,Fukuchiyama,,620-1445,Japan,377,Hill
59 Londonderry Road,Jammā‘īn,,,Palestinian Territory,165,Plaza
768 Cardinal Hill,Sukorejo,,,Indonesia,90,Center
572 Banding Place,Lamphun,,51000,Thailand,21183,Park
433 Artisan Avenue,Tapiramutá,,44840-000,Brazil,95532,Way
599 Hanson Center,Flor da Rosa,Portalegre,7430-215,Portugal,28,Court
74000 Commercial Circle,Vani,,,Georgia,8226,Lane
2010 Delladonna Alley,Nacka,Stockholm,131 46,Sweden,421,Pass
3 Valley Edge Place,Gaoqiao,,,China,23,Trail
110 3rd Trail,Jinniu,,,China,856,Parkway
939 Atwood Terrace,Boronów,,42-283,Poland,0,Trail
01187 Northwestern Trail,Si Narong,,34000,Thailand,322,Avenue
2133 Paget Parkway,Tegalgede Kulon,,,Indonesia,21,Road
8011 Lerdahl Terrace,Michałów,,28-411,Poland,44263,Park
343 Spaight Circle,Vyritsa,,188382,Russia,53,Road
331 Cambridge Center,Nan’an,,,China,86,Terrace
500 Bay Point,Las Matas de Farfán,,11809,Dominican Republic,8307,Circle
6944 Bowman Avenue,Pórto Chéli,,,Greece,4300,Circle
73269 Lawn Road,Zaječov,,267 63,Czech Republic,96333,Crossing
56230 Golf Point,Shuiting,,,China,05322,Pass
2 Stuart Alley,Sekondi-Takoradi,,,Ghana,3,Court
62836 Fairview Court,Babakankadu,,,Indonesia,60,Crossing
6 Buell Street,Sanhe,,,China,417,Way
5479 Northwestern Plaza,Dobšice,,671 82,Czech Republic,42601,Hill
67227 Cody Alley,Gazanjyk,,,Turkmenistan,59717,Crossing
52 Hanson Crossing,Binalonan,,2436,Philippines,09,Hill
9 Bonner Parkway,Lilongwe,,,Malawi,4921,Crossing
5 Upham Hill,Santa Ana,,,Peru,91009,Avenue
4541 Texas Place,Youyun,,,China,2,Circle
9 Independence Junction,Ayrihuanca,,,Peru,0,Court
554 Continental Street,Vicente Guerrero,Puebla,75212,Mexico,38,Plaza
94845 Morning Trail,Zheshan,,,China,9,Plaza
70523 Superior Crossing,Lagawe,,3600,Philippines,455,Park
40 Sachs Terrace,Paritjunus,,,Indonesia,335,Park
0 Harbort Avenue,Pasireurih,,,Indonesia,143,Place
42 Sherman Pass,Sudogda,,601352,Russia,797,Plaza
264 Clove Circle,Baiba,,,China,69,Center
0 Claremont Court,Mölndal,Västra Götaland,431 10,Sweden,57,Court
946 Northland Junction,Newark,New Jersey,07112,United States,2,Place
0949 Towne Place,Wangbuzhuang,,,China,24,Point
2801 Summit Trail,Durham,North Carolina,27717,United States,24890,Plaza
613 Park Meadow Plaza,Třebíč,,674 01,Czech Republic,552,Park
6 Independence Trail,Mantar,,,Indonesia,6,Park
7321 Pennsylvania Crossing,Palopo,,,Indonesia,826,Lane
66380 Northport Trail,Kroczyce,,42-425,Poland,699,Circle
1516 Waubesa Court,Juliaca,,,Peru,971,Pass
951 Pepper Wood Crossing,Russkaya Polyana,,646780,Russia,8,Crossing
24840 Kingsford Pass,Mpulungu,,,Zambia,771,Terrace
029 Dorton Center,Saint-Cloud,Île-de-France,92214 CEDEX,France,45495,Lane
75296 Porter Avenue,Zalaegerszeg,Zala,8909,Hungary,960,Drive
813 Reinke Park,Barbacoas,,,Venezuela,8065,Drive
10095 Fisk Place,Tianjin,,,China,60853,Street
7 Paget Drive,Doug An,,,Vietnam,78344,Park
34526 Morningstar Center,Zhangdian,,,China,1,Place
43 Vera Crossing,Zambrów,,18-301,Poland,88863,Trail
9 Hagan Pass,Krasnohrad,,,Ukraine,99854,Court
5 Kropf Trail,Potongan,,,Indonesia,6392,Plaza
32 Monument Terrace,Fazhan,,,China,18,Terrace
09 Granby Trail,Ra-ngae,,96130,Thailand,26,Terrace
42 Trailsway Street,Kamiennik,,48-388,Poland,765,Lane
3101 Delladonna Way,Solna,Stockholm,171 49,Sweden,6,Parkway
378 Dawn Crossing,Abengourou,,,Ivory Coast,85,Road
1187 Main Point,Patea,,4545,New Zealand,33,Center
8 Prairieview Parkway,Babakandesa,,,Indonesia,22638,Court
4976 South Hill,Panyambungan,,,Indonesia,274,Hill
293 Harbort Road,Khok Sung,,27120,Thailand,91,Avenue
2765 Corben Road,Ibeto,,,Nigeria,5,Park
65159 Lakewood Gardens Park,Alunda,Uppsala,747 30,Sweden,9927,Alley
6224 Riverside Point,Beauharnois,Québec,J6N,Canada,2,Drive
7 Coolidge Place,Erie,Pennsylvania,16565,United States,396,Crossing
755 Briar Crest Way,Nggalak,,,Indonesia,50,Pass
57 Sutherland Way,Jiuting,,,China,6,Drive
53678 Mandrake Crossing,Bone South,,1052,Philippines,04,Park
891 Pine View Center,Bridgetown,,,Barbados,90,Place
92 Sutherland Parkway,Biritiba Mirim,,08940-000,Brazil,60225,Alley
711 Dunning Center,Lucé,Centre,28114 CEDEX,France,32932,Circle
4344 Manufacturers Road,Wilkes Barre,Pennsylvania,18763,United States,22162,Trail
504 Ridgeview Lane,Duqu,,,China,21,Center
7 Spenser Pass,Sáchica,,154047,Colombia,107,Park
3 Namekagon Place,Nikol’skoye,,678214,Russia,23,Crossing
54298 Rockefeller Junction,Jastrebarsko,,10450,Croatia,0484,Terrace
738 Stoughton Trail,Hongor,,,Mongolia,92740,Parkway
54730 Mcguire Pass,Dongdong,,,China,22988,Parkway
0 Pepper Wood Hill,Piritiba,,44830-000,Brazil,65,Road
8 Aberg Point,Iranduba,,69405-000,Brazil,6035,Center
921 Pierstorff Park,Boise,Idaho,83732,United States,670,Point
2 Mariners Cove Road,Paragominas,,68625-000,Brazil,2,Junction
7 Northview Center,Plovdiv,,4000,Bulgaria,26300,Parkway
55 Manitowish Point,Santo Tomas,,,Peru,050,Center
4 Atwood Lane,Miyazaki-shi,,889-1716,Japan,52,Court
0847 Huxley Point,San Jose,,8427,Philippines,850,Drive
15298 Sullivan Junction,Vila Chã,Aveiro,3720-727,Portugal,87,Parkway
26719 Nevada Trail,Jakhaly,,,Gambia,08701,Avenue
2 High Crossing Parkway,Banjar Pekandelan,,,Indonesia,4,Alley
4 Melvin Junction,Lubowidz,,09-304,Poland,64,Court
470 Jana Pass,Zhenhai,,,China,2,Park
0 Continental Parkway,Jargalant,,,Mongolia,703,Park
44 Nancy Trail,Xihu,,,China,4853,Junction
74815 Corben Crossing,Kakogawachō-honmachi,,676-0828,Japan,8,Lane
8 Mifflin Way,Changchi,,,China,7763,Avenue
7 Magdeline Way,Longwan,,,China,638,Plaza
981 Londonderry Avenue,Luoting,,,China,9575,Center
218 Schiller Trail,Las Palmas,Oaxaca,71984,Mexico,8,Circle
28 Waxwing Pass,Adtugan,,8716,Philippines,7685,Hill
16 Jenna Crossing,Santiago de Cuba,,,Cuba,25,Road
124 Norway Maple Park,Łubnice,,98-432,Poland,8,Road
700 Bowman Junction,Al Fūlah,,,Sudan,57,Avenue
74549 Schlimgen Street,Nkpor,,,Nigeria,46,Terrace
2 Waubesa Plaza,Thymianá,,,Greece,22314,Junction
1503 Sloan Trail,San Patricio,,,Paraguay,5,Plaza
83 Dixon Road,Xiangfu,,,China,9,Road
50720 Mendota Circle,Sena Madureira,,69940-000,Brazil,9,Center
53 Buell Alley,Willemstad,,,Curacao,72070,Trail
68 Farwell Junction,Dawuhan,,,Indonesia,4317,Alley
28019 Forster Center,Nu’erbage,,,China,3347,Terrace
08 Novick Alley,Gribanovskiy,,397243,Russia,323,Street
345 Reindahl Hill,Oklahoma City,Oklahoma,73190,United States,714,Avenue
694 Loftsgordon Terrace,Zhishan,,,China,181,Plaza
1582 Ryan Street,Mayuge,,,Uganda,3,Center
23535 Delaware Street,Şabrātah,,,Libya,5936,Hill
5543 Fallview Street,Chengdong,,,China,22,Place
6122 Park Meadow Junction,Korisós,,,Greece,9089,Street
1 Florence Point,Santiaoshi,,,China,1152,Avenue
05 Summerview Avenue,La Reforma,Veracruz Llave,94724,Mexico,8,Alley
100 Northwestern Circle,Ostrožská Lhota,,687 23,Czech Republic,98429,Court
68 Drewry Terrace,Gucheng,,,China,82602,Terrace
59504 Monterey Road,Kaduseeng,,,Indonesia,1537,Terrace
1 Basil Court,Banja Luka,,,Bosnia and Herzegovina,237,Pass
2909 Bobwhite Avenue,Limoges,Limousin,87046 CEDEX 1,France,9,Alley
351 Lakeland Way,Kyra,,674250,Russia,6869,Drive
635 Center Hill,Dongshan,,,China,9455,Plaza
19556 Mallory Parkway,Cicayur,,,Indonesia,74402,Court
95 Monterey Center,Shangsanji,,,China,013,Way
02945 Lawn Hill,Cihaurbeuti,,,Indonesia,1744,Alley
6 Upham Junction,Hacıqabul,,,Azerbaijan,992,Court
691 Artisan Lane,Kassala,,,Sudan,352,Trail
06 Claremont Pass,Paringin,,,Indonesia,055,Point
00 Montana Parkway,Gaozhou,,,China,35227,Court
78829 Tony Drive,Pederneiras,,17280-000,Brazil,94,Park
4981 Cambridge Drive,Khao Wong,,46160,Thailand,57,Point
07129 Rockefeller Circle,Slavkov u Brna,,684 01,Czech Republic,2,Parkway
51 Kropf Parkway,Lebedyn,,,Ukraine,139,Hill
82487 Clyde Gallagher Junction,Aylmer,Ontario,N5H,Canada,35757,Trail
8 Blue Bill Park Drive,Heshui,,,China,03,Center
222 Butterfield Circle,Yingmaili,,,China,80455,Circle
178 Iowa Hill,Mbongawani,,,Indonesia,9,Parkway
04 Mesta Circle,Krzemienica,,37-127,Poland,0,Parkway
58371 Vidon Point,Chipoka,,,Malawi,468,Hill
6064 Nevada Trail,Dubu,,,China,4,Junction
18142 Northview Plaza,Damanhūr,,,Egypt,6,Place
29 Cottonwood Drive,Youhua,,,China,59,Center
537 Memorial Street,Varaždin,,42000,Croatia,72,Parkway
3 Washington Trail,Narukan,,,Indonesia,09,Circle
6004 Mesta Hill,Baiyun,,,China,66097,Lane
32929 Colorado Circle,Ban Fang,,40270,Thailand,7475,Way
17549 Lyons Center,Golovinskiy,,141707,Russia,0480,Road
75 Fairview Center,Nirgua,,,Venezuela,52143,Plaza
07692 Vernon Avenue,Nýdek,,739 95,Czech Republic,867,Park
82 Bartillon Hill,Komi,,,Indonesia,36,Pass
86246 Dryden Center,Dimbokro,,,Ivory Coast,7,Place
57 Sullivan Way,Shouzhan,,,China,08614,Junction
5019 Bultman Center,Banjar Sebual,,,Indonesia,5,Park
93 Shopko Way,Apitong,,4405,Philippines,7,Junction
4632 Hanson Road,Luodong,,,China,6,Road
96823 Ohio Court,Clervaux,,L-9765,Luxembourg,6809,Alley
776 Michigan Alley,Titao,,,Burkina Faso,2610,Place
692 Burning Wood Junction,Tarbes,Midi-Pyrénées,65004 CEDEX,France,7,Way
5519 Havey Hill,Semarang,,,Indonesia,94,Park
09 Pearson Terrace,Sarirejo Satu,,,Indonesia,00,Terrace
6136 Ludington Drive,Lecong,,,China,06906,Circle
236 Portage Street,San Pedro Sacatepéquez,,01059,Guatemala,025,Drive
710 Scoville Drive,Xindian,,,China,056,Court
17 Hallows Pass,Huangzhuang,,,China,1655,Parkway
7423 Graceland Park,Chiara,,,Peru,7,Pass
88 La Follette Point,Debrecen,Hajdú-Bihar,4014,Hungary,8868,Circle
14738 Summerview Parkway,Thị Trấn Yên Thịnh,,,Vietnam,2567,Circle
59597 Heffernan Place,Afántou,,,Greece,762,Terrace
045 Dunning Road,Antaparco,,,Peru,5365,Point
8 Lotheville Plaza,Druzhba,,,Ukraine,3582,Court
3 Tony Place,Jungkat Selatan,,,Indonesia,3271,Junction
9 Butternut Road,Ospina,,523047,Colombia,9,Crossing
319 Scofield Place,San Antonio de Los Altos,,,Venezuela,7878,Pass
5 Oak Avenue,Berlin,Berlin,14109,Germany,0367,Junction
05 Summit Crossing,Pestovo,,174510,Russia,151,Terrace
6 Jana Trail,Pamoyanan,,,Indonesia,139,Parkway
11038 Luster Way,Örebro,Örebro,701 43,Sweden,37691,Alley
486 Bowman Road,Mouquim,Braga,4770-354,Portugal,636,Pass
5868 Golf View Alley,Ramanavichy,,,Belarus,130,Center
49 Delladonna Plaza,Concepción,,,Paraguay,6,Crossing
29536 Stephen Park,Kafr Baţnā,,,Syria,0,Park
5752 Aberg Center,Bonneville,Rhône-Alpes,74134 CEDEX,France,2527,Parkway
09690 Bultman Circle,Plaju,,,Indonesia,3324,Terrace
6671 Kedzie Terrace,Karmaskaly,,453150,Russia,34927,Point
905 Valley Edge Hill,Hingatungan,,2500,Philippines,14287,Hill
68557 Coolidge Lane,Azara,,3351,Argentina,2015,Drive
58616 Mcguire Road,Sakhipur,,1950,Bangladesh,9106,Road
00 Spaight Terrace,Sendangwaru,,,Indonesia,857,Junction
92 Merry Pass,Kobuleti,,,Georgia,3,Terrace
19484 Center Road,Shabo,,,Ukraine,5046,Alley
11853 Scofield Hill,Issy-les-Moulineaux,Île-de-France,92782 CEDEX 9,France,95703,Hill
77463 Forster Alley,Tangxi,,,China,82591,Center
3104 Boyd Junction,Mangochi,,,Malawi,72040,Junction
21 Fairview Junction,Linshui,,,China,12,Plaza
1 Utah Junction,Sadkowice,,96-206,Poland,06283,Center
095 Farragut Road,Caridade,Évora,7200-224,Portugal,8,Plaza
2026 Springs Park,Sighnaghi,,,Georgia,11320,Parkway
53 Dawn Way,Plateliai,,90036,Lithuania,57,Plaza
5 Logan Plaza,Blois,Centre,41942 CEDEX 9,France,9,Drive
0 Monterey Center,El Aguacate,Guerrero,40687,Mexico,37617,Center
5 Fordem Center,Phoenix,Arizona,85053,United States,99002,Lane
01198 Golf Way,Novosel’ye,,,Belarus,28097,Park
66713 Corscot Pass,Banjar Batanpoh,,,Indonesia,292,Point
8 Springview Hill,Buriwutung,,,Indonesia,637,Way
75998 Brown Drive,Hengli,,,China,4,Avenue
97 Rigney Trail,Pasarnangka,,,Indonesia,97228,Hill
8512 Clarendon Trail,Černovice,,618 00,Czech Republic,72783,Avenue
762 Scofield Park,Mekarsari,,,Indonesia,92,Hill
1 Londonderry Way,Qijiang,,,China,139,Parkway
69216 Moose Hill,Неготино,,1236,Macedonia,1176,Crossing
262 Mockingbird Street,Kozova,,,Ukraine,9,Hill
98 Blue Bill Park Hill,Placencia,,,Belize,5095,Crossing
8 Randy Way,Embu Guaçu,,96910-000,Brazil,2383,Pass
8894 Monica Trail,Comalapa,,04004,Guatemala,93,Center
5 Corry Lane,Cana Chapetón,,11004,Dominican Republic,7,Lane
237 Marquette Point,Canavieiras,,45860-000,Brazil,07,Alley
58 Ohio Lane,Granadero Baigorria,,2152,Argentina,647,Road
95 Hoffman Court,Kachar,,,Kazakhstan,163,Avenue
82 Birchwood Hill,Chisong,,,China,81317,Lane
595 Shoshone Place,Novosineglazovskiy,,456505,Russia,98,Parkway
981 Miller Court,Västervik,Kalmar,593 30,Sweden,7360,Park
2 Surrey Plaza,Khonj,,,Iran,1,Park
2 Russell Park,Al Majāridah,,,Saudi Arabia,46,Road
39182 Esch Plaza,Černelavci,,9265,Slovenia,9650,Place
7 International Junction,Guanzhou,,,China,264,Parkway
34 Beilfuss Road,Aix-en-Provence,Provence-Alpes-Côte d'Azur,13792 CEDEX 3,France,50744,Hill
35317 Warbler Road,Cabano,Québec,T9H,Canada,59779,Plaza
942 Bunting Street,Stepnica,,72-112,Poland,17,Way
366 Eliot Way,Jiaoxiyakou,,,China,7647,Hill
33021 Sunbrook Avenue,‘Ibrī,,,Oman,9673,Parkway
037 Memorial Drive,Duanjia,,,China,862,Point
4 Golden Leaf Crossing,Krasnoshchekovo,,658343,Russia,27730,Junction
293 Mallory Junction,Parakanbeusi,,,Indonesia,7,Avenue
8 Tony Drive,Erenhot,,,China,52922,Lane
5880 Lien Center,Dourbali,,,Chad,35143,Park
493 Oriole Pass,Hengshan,,,China,34208,Pass
562 Fieldstone Terrace,Masalovka,,347837,Russia,70179,Pass
435 Packers Way,Tatarbunary,,,Ukraine,2891,Circle
3478 Del Mar Avenue,Otra Banda,,11805,Dominican Republic,68498,Street
047 Vernon Hill,Wunat,,,Indonesia,7,Plaza
34 Sauthoff Alley,Nishishinminato,,934-0099,Japan,3,Court
6083 Stoughton Trail,Hengliang,,,China,027,Circle
79 Kropf Circle,Kendung Timur,,,Indonesia,150,Plaza
23 North Drive,Tegalwero,,,Indonesia,0341,Road
7 Tennessee Avenue,Karangharjo,,,Indonesia,6,Street
6665 Schurz Junction,Grazhdanka,,692327,Russia,510,Alley
64 Schurz Trail,Udanin,,55-340,Poland,84595,Road
6848 Marcy Way,Almere Stad,Provincie Flevoland,1304,Netherlands,5,Junction
844 Kinsman Parkway,Welchman Hall,,,Barbados,13,Terrace
58191 Darwin Place,Sobreiro,Viana do Castelo,4940-374,Portugal,118,Court
72 Jenna Way,Chrast,,538 51,Czech Republic,851,Point
5 4th Hill,Zbiroh,,338 08,Czech Republic,135,Circle
2077 Raven Plaza,Warung Wetan,,,Indonesia,2,Alley
76 Saint Paul Place,Mranggen,,,Indonesia,599,Parkway
94 Eliot Lane,Ozorków,,95-036,Poland,12,Junction
262 Warrior Street,Eisen,,,South Korea,13210,Circle
8 Montana Way,Kawasaki,,999-3145,Japan,0,Road
7 Warrior Way,Bāmyān,,,Afghanistan,5584,Road
365 Kropf Trail,Chābahār,,,Iran,71,Avenue
10641 Pine View Avenue,Makueni,,,Kenya,2,Center
29 Northwestern Parkway,Svetlograd,,356537,Russia,56,Park
69216 Nancy Road,Carpentras,Provence-Alpes-Côte d'Azur,84204 CEDEX,France,3898,Drive
99 Myrtle Way,Rönninge,Stockholm,144 40,Sweden,1520,Crossing
27634 Rockefeller Plaza,Alcantara,,5509,Philippines,2,Court
69514 Doe Crossing Way,Shatian,,,China,88,Way
7129 Sycamore Parkway,Obanazawa,,999-4221,Japan,089,Terrace
078 Fremont Plaza,Lazdijai,,67001,Lithuania,046,Parkway
3 Crescent Oaks Street,Rushankou,,,China,807,Avenue
062 Fuller Center,Beicheng,,,China,89583,Pass
59212 Susan Plaza,Chengnan,,,China,78649,Lane
22 Portage Plaza,Omaha,Nebraska,68144,United States,26104,Way
755 Orin Way,Bergen op Zoom,Provincie Noord-Brabant,4609,Netherlands,3,Park
527 Trailsway Pass,Idhnā,,,Palestinian Territory,43,Lane
12 Knutson Lane,Lucé,Centre,28114 CEDEX,France,2,Lane
50029 Birchwood Alley,Ash Shuhadā’,,,Palestinian Territory,9,Road
0 Continental Center,Guangning,,,China,50,Parkway
72630 Towne Trail,Paulínia,,13140-000,Brazil,41,Plaza
5249 Village Green Avenue,Izborsk,,181518,Russia,1097,Park
70 Dryden Lane,Santa Maria Oliveira,Braga,4765-322,Portugal,79,Place
7 Mcguire Court,Évlalo,,,Greece,247,Parkway
02997 Village Place,Boca de Parita,,,Panama,83,Junction
430 Veith Point,San Rafael Abajo,,10311,Costa Rica,114,Plaza
6494 Linden Lane,Богданци,,1488,Macedonia,7449,Alley
6101 Del Mar Park,Avdzaga,,,Mongolia,63666,Drive
926 Rockefeller Terrace,Viña del Mar,,,Chile,202,Crossing
6 Donald Crossing,Quba,,,Azerbaijan,8775,Drive
38594 Crownhardt Way,Girang,,,Indonesia,31826,Point
251 Scoville Road,Vitry-sur-Seine,Île-de-France,94785 CEDEX,France,7,Center
42747 Dorton Park,Shang Boingor,,,China,443,Hill
5 Memorial Terrace,Chernelytsya,,,Ukraine,46529,Road
245 Bonner Center,Beiqijia,,,China,09,Drive
4 Arkansas Court,Síkinos,,,Greece,99,Avenue
68063 Badeau Parkway,Tonoas Municipal Building,,,Micronesia,933,Point
95 Center Pass,Dundbürd,,,Mongolia,61569,Hill
5 Shasta Place,Tiantai,,,China,03,Place
856 3rd Point,Hedian,,,China,2097,Drive
8081 Farmco Junction,Milíkov,,739 81,Czech Republic,0914,Plaza
18 Trailsway Pass,Buenavista,,8601,Philippines,6441,Pass
8980 Chinook Trail,San Clemente,,,Peru,79,Court
67 Tony Parkway,Mnich,,43-523,Poland,72475,Way
63 Thompson Pass,Orlovskiy,,347513,Russia,3339,Pass
214 Texas Way,Lüfeng,,,China,79,Plaza
9361 Burning Wood Plaza,Patnongon,,5702,Philippines,0,Street
2501 Lakeland Park,Karanggeneng,,,Indonesia,53990,Park
67 Elka Crossing,Beicang,,,China,1,Parkway
07749 Bartillon Road,Karara,,,Indonesia,58654,Junction
260 Eagle Crest Pass,Murom,,602257,Russia,9,Trail
93 Upham Junction,Notsé,,,Togo,80,Circle
6 Cherokee Terrace,Tromsø,Troms,9259,Norway,652,Alley
595 Melrose Way,Golmud,,,China,40,Alley
87000 Valley Edge Crossing,Beauharnois,Québec,J6N,Canada,4,Point
4 Mayer Court,Balas,,2007,Philippines,1084,Pass
0828 Express Junction,Candelaria,,111711,Colombia,5962,Way
4253 Pankratz Court,Érd,Pest,2035,Hungary,09180,Point
6555 Debs Lane,Klaeng,,21110,Thailand,218,Park
8084 Darwin Lane,Waimangura,,,Indonesia,4,Parkway
30 Milwaukee Center,Lagnieu,Rhône-Alpes,01154 CEDEX,France,2,Parkway
1 Springview Parkway,Cusapín,,,Panama,23,Park
8236 Brentwood Center,Hongshi,,,China,41,Junction
810 Amoth Trail,Studzienice,,77-143,Poland,875,Street
3179 Dunning Point,Jampang Kulon,,,Indonesia,5,Road
8 Vernon Center,Canga’an,,,Indonesia,3272,Pass
1787 Melody Road,Kula,,3818,Bulgaria,57,Parkway
7716 Ronald Regan Circle,Xingnong,,,China,826,Way
67 Independence Plaza,Sannikovo,,658059,Russia,1,Terrace
5449 Express Place,Kebili,,,Tunisia,332,Pass
66 Eagle Crest Place,Isheyevka,,433310,Russia,0,Avenue
40 Knutson Drive,Sukorambi,,,Indonesia,62221,Lane
7 Bunker Hill Court,Zhaotong,,,China,63,Parkway
4535 Florence Drive,Pondokkaha Kelod,,,Indonesia,56551,Park
9339 Heffernan Plaza,Makbon,,,Indonesia,843,Point
15 David Circle,Yangmingbu,,,China,05530,Terrace
5 Rowland Place,Kuanfatu,,,Indonesia,7,Street
5695 School Hill,Pilzno,,39-220,Poland,05842,Drive
2 Ramsey Junction,Detroit,Michigan,48211,United States,5982,Center
342 Loomis Drive,San Isidro,,,Peru,04,Hill
3 Basil Crossing,Mangli,,,Indonesia,71221,Park
7879 Anhalt Street,Orichi,,613603,Russia,31971,Hill
19 Packers Trail,Qianchuan,,,China,904,Alley
95 Loeprich Plaza,Beiwucha,,,China,614,Hill
901 Northridge Road,Borzoy,,366406,Russia,950,Crossing
7 Hintze Road,Weifen,,,China,68,Lane
50 Mosinee Park,Tamnag,,9803,Philippines,7,Hill
36127 Crowley Pass,Sruki,,,Indonesia,76,Circle
91925 Crescent Oaks Trail,Karlivka,,,Ukraine,13,Avenue
99562 Dennis Court,Koceljeva,,,Serbia,137,Hill
9800 Huxley Street,Banjar Mambalkajanan,,,Indonesia,1150,Terrace
243 Ludington Avenue,Tuqiao,,,China,9,Street
79 Lighthouse Bay Hill,Kidričevo,,2325,Slovenia,4,Hill
7 Johnson Plaza,Opatówek,,62-860,Poland,4,Lane
7 David Pass,Noling,,2731,Philippines,69741,Avenue
754 Elka Court,Skelleftehamn,Västerbotten,932 33,Sweden,6434,Center
5932 Center Avenue,Närpes,,64210,Finland,94,Alley
888 Knutson Court,Vidyayevo,,184389,Russia,384,Drive
2054 Hagan Junction,Kanáli,,,Greece,9925,Circle
5 Rigney Street,Lluidas Vale,,,Jamaica,11910,Alley
7634 Northwestern Street,Cercal,Santarém,2490-105,Portugal,6009,Alley
3018 Maywood Circle,Kuishan,,,China,09,Hill
91 Springview Circle,Jaworze,,43-384,Poland,7,Crossing
78 Northwestern Pass,Sishui,,,China,3,Court
825 Waywood Circle,Paris 12,Île-de-France,75609 CEDEX 12,France,4,Circle
24077 Armistice Terrace,Zhankhoteko,,361524,Russia,68,Park
57 Sunbrook Way,Vellinge,Skåne,235 93,Sweden,692,Plaza
42 Eastlawn Parkway,Kurów,,24-170,Poland,612,Terrace
4 Hudson Hill,Zibu,,,China,6454,Drive
7 Mallory Trail,Changbai,,,China,7576,Road
3037 Golf View Drive,Seso,,,Indonesia,5754,Park
22 Tennessee Circle,Zhenxi,,,China,5,Terrace
58 Vermont Crossing,Ramos West,,3309,Philippines,40,Drive
1 Gulseth Junction,Demba,,,Democratic Republic of the Congo,21019,Street
5 Schlimgen Circle,Luyang,,,China,428,Way
061 Brickson Park Park,Xishaping,,,China,224,Way
93609 Transport Point,Barbalha,,63180-000,Brazil,1,Circle
3 Straubel Plaza,Blaye,Aquitaine,33394 CEDEX,France,33706,Place
4 Carpenter Center,Helong,,,China,13,Avenue
70 Dexter Circle,Nakama,,904-0401,Japan,880,Hill
233 Sundown Avenue,Castelões,Braga,4770-834,Portugal,48,Center
9 Thackeray Crossing,Badrah,,,Mongolia,4,Parkway
5 Lakewood Gardens Crossing,Kamphaeng Phet,,44190,Thailand,9161,Drive
88608 Memorial Parkway,Barra de São Francisco,,29800-000,Brazil,376,Alley
4 Melrose Way,Mirebalais,,,Haiti,1,Circle
0 Lighthouse Bay Drive,Cut-cut Primero,,3119,Philippines,33,Alley
03647 Jay Trail,Puamata,,,Indonesia,807,Center
475 Lindbergh Alley,Puconci,,9201,Slovenia,8696,Terrace
56 Bonner Alley,Nueve de Julio,,3606,Argentina,9647,Terrace
2 Division Avenue,Chokwé,,,Mozambique,9123,Place
63 Scoville Way,Pindangan Centro,,8603,Philippines,46,Lane
90998 Mariners Cove Parkway,Orzech,,41-922,Poland,8,Avenue
889 Esker Junction,Johanneshov,Stockholm,121 12,Sweden,164,Junction
16821 Superior Avenue,Ouésso,,,Republic of the Congo,3,Way
3 Hollow Ridge Alley,Stockholm,Stockholm,131 88,Sweden,2,Court
9947 Loftsgordon Plaza,Dibba Al-Hisn,,,United Arab Emirates,76310,Way
04 Sloan Street,Sakaraha,,,Madagascar,86,Road
30 Tomscot Alley,Jargalant,,,Mongolia,3,Junction
49 Evergreen Terrace,Langsa,,,Indonesia,49,Street
7 Lawn Way,Hultsfred,Kalmar,577 32,Sweden,7,Center
552 Sachs Road,Pasirhuni,,,Indonesia,87722,Plaza
89 Anzinger Alley,Xinmen,,,China,6064,Court
36 Oneill Center,Laolong,,,China,83967,Alley
472 Hermina Place,Karanggeneng,,,Indonesia,0573,Pass
9908 North Terrace,Makedonski Brod,,6530,Macedonia,99530,Circle
18 East Center,Cisompet,,,Indonesia,763,Junction
68 Cottonwood Plaza,Shabel’skoye,,353643,Russia,16220,Parkway
9 Del Mar Parkway,Magallanes,,8604,Philippines,76667,Street
89502 Prairieview Lane,Keluke,,,China,87342,Street
105 Warbler Drive,Namwala,,,Zambia,08753,Terrace
5 Sunfield Alley,Al Ḩarajah,,,Yemen,7,Road
8851 Warbler Hill,Châtellerault,Poitou-Charentes,86104 CEDEX,France,71261,Point
7904 Barnett Plaza,Embarcación,,4550,Argentina,36394,Plaza
8 Orin Place,Baltiysk,,238528,Russia,9,Lane
01 Loftsgordon Plaza,Trai Ngau,,,Vietnam,245,Center
6737 Amoth Drive,Ratoath,,A85,Ireland,97,Drive
7028 Elmside Alley,Leones,,2594,Argentina,29,Circle
2350 Utah Circle,Borok,,152743,Russia,6644,Plaza
28954 Dayton Street,Pasirmanggu,,,Indonesia,1,Circle
934 Morning Hill,Mahébourg,,,Mauritius,421,Circle
87 Judy Hill,Santa Ana,,3514,Philippines,88875,Lane
85332 Oak Plaza,Stockholm,Stockholm,111 46,Sweden,96,Parkway
187 Crest Line Trail,Karma,,,Belarus,31766,Pass
16 Sunnyside Circle,Vom,,,Nigeria,9,Drive
4 Logan Center,Songyuan,,,China,68897,Lane
77 Kipling Circle,Petrovskoye,,152130,Russia,191,Center
23 Bluestem Terrace,Pedrulheira,Leiria,2430-328,Portugal,126,Circle
75397 Tony Plaza,Kloangpopot,,,Indonesia,9187,Circle
62 Golf Terrace,Okuta,,,Nigeria,4637,Point
53 Park Meadow Avenue,Randuboto,,,Indonesia,7,Pass
41 Jenifer Center,Örebro,Örebro,701 48,Sweden,112,Road
905 Debs Alley,Halteu,,,Indonesia,3,Place
3270 Nobel Road,Polen,,,Indonesia,633,Junction
7 Butternut Street,Ayorou,,,Niger,9,Court
29 Mcbride Plaza,Chujiang,,,China,6450,Plaza
850 Corben Lane,Birni N Konni,,,Niger,6,Terrace
354 Randy Place,Kahabe,,,Indonesia,4050,Parkway
20 Northview Park,Linköping,Östergötland,586 63,Sweden,04208,Court
741 Dryden Pass,Hongch’ŏn,,,South Korea,461,Road
34019 Northwestern Point,Brea Pozo,,4313,Argentina,64,Avenue
5287 Waywood Court,Hou’an,,,China,04,Circle
2558 Dawn Avenue,Skolkovo,,249028,Russia,72,Circle
0735 Becker Court,Potoni,,,Peru,8,Junction
288 Lyons Hill,Futtsu,,293-0024,Japan,129,Junction
98975 Truax Center,Rodez,Midi-Pyrénées,12020 CEDEX 9,France,13133,Drive
1803 Golf Course Park,San Bartolomé Milpas Altas,,03009,Guatemala,4065,Drive
895 Anzinger Park,Benito Juarez,Oaxaca,70760,Mexico,3,Hill
338 Drewry Avenue,Tulsa,Oklahoma,74103,United States,5795,Trail
45490 Monica Park,Leribe,,,Lesotho,87,Terrace
21 Florence Point,Houmt Souk,,,Tunisia,2,Alley
02 Boyd Way,Yangchun,,,China,9,Crossing
71257 Blackbird Alley,Sumberjeruk,,,Indonesia,53925,Lane
58437 Kings Park,Aracaju,,49000-000,Brazil,6014,Point
8476 Monica Street,Purwodadi,,,Indonesia,279,Park
909 Bobwhite Pass,Oyam,,,Uganda,1,Point
7 Upham Place,Calmar,Alberta,S0G,Canada,8517,Road
2 Columbus Road,Huadian,,,China,4276,Avenue
84059 Browning Park,Xigou,,,China,8886,Way
595 Morningstar Hill,Januária,,39480-000,Brazil,46,Crossing
497 Arizona Center,Lalauigan,,2900,Philippines,9834,Place
6 Karstens Park,Bonneuil-sur-Marne,Île-de-France,94865 CEDEX,France,411,Center
61 Crowley Center,Lixu,,,China,083,Circle
693 Boyd Parkway,San Isidro,Coahuila De Zaragoza,27990,Mexico,79,Street
88 Elmside Lane,Hengjian,,,China,721,Trail
5 Heath Avenue,Douentza,,,Mali,03,Crossing
142 Charing Cross Street,Zhongcun,,,China,8889,Crossing
72623 Brickson Park Parkway,Kamenica,,,Serbia,7,Trail
0 Waubesa Street,Banag,,4234,Philippines,87,Trail
93742 7th Place,Denver,Colorado,80262,United States,50,Trail
10 Ilene Avenue,Jiekeng,,,China,879,Point
54 Helena Way,Udachny,,678188,Russia,5,Junction
24 Badeau Plaza,Orikhiv,,,Ukraine,965,Point
398 Lighthouse Bay Hill,Turochak,,649140,Russia,25,Trail
4961 Dwight Circle,Grigoropolisskaya,,356020,Russia,4919,Junction
055 Graedel Drive,Irbid,,,Jordan,10,Park
540 Muir Terrace,Proboštov,,403 27,Czech Republic,6904,Point
7966 Florence Parkway,Videira,,89560-000,Brazil,27,Circle
42098 Cherokee Hill,Pytalovo,,181410,Russia,62433,Drive
21 Bunting Road,Banjar Petak,,,Indonesia,6577,Court
234 Haas Street,Färjestaden,Kalmar,386 35,Sweden,41456,Trail
9680 Prairieview Center,Kisanga,,,Tanzania,964,Center
9 Cascade Trail,Trzcińsko Zdrój,,74-510,Poland,279,Terrace
80268 Esker Pass,Sabandia,,,Peru,0984,Place
2551 Southridge Parkway,Nangka,,1808,Philippines,2,Lane
89765 Mcguire Street,Andamui,,,Indonesia,66,Park
230 Upham Avenue,Goroka,,,Papua New Guinea,373,Pass
04 Sutteridge Park,Santa Lucia,,2712,Philippines,75661,Plaza
0915 American Ash Park,Mariquita,,732028,Colombia,77,Circle
85131 Eagle Crest Center,Thị Trấn Quế,,,Vietnam,3,Hill
8 Waubesa Center,Manorhamilton,,H16,Ireland,32,Street
95 Wayridge Junction,Lab,,,China,41354,Lane
96 Riverside Lane,Ash Sharyah,,,Yemen,77281,Terrace
44 Superior Park,Sumeng,,,China,531,Terrace
2 4th Court,Shihuang,,,China,60862,Way
8204 Nova Point,Kijini,,,Tanzania,2304,Road
0348 Pine View Way,Louta,,,China,8536,Drive
18813 Farmco Circle,Tuchlovice,,273 02,Czech Republic,044,Alley
01 Garrison Junction,Capacho Nuevo,,,Venezuela,64796,Street
8 Debs Crossing,Vetlanda,Jönköping,574 91,Sweden,2,Circle
13170 Gerald Avenue,Xinglongquan,,,China,6,Pass
554 Gale Lane,Gjøvik,Oppland,2821,Norway,56,Terrace
1 Dorton Crossing,Kuršėnai,,81001,Lithuania,81213,Lane
137 Muir Junction,Marjayoûn,,,Lebanon,10064,Parkway
53666 Orin Parkway,Vicente Guerrero,Veracruz Llave,92440,Mexico,0223,Court
8 Summer Ridge Center,Cubatão,,11500-000,Brazil,2035,Circle
67 Reinke Plaza,Nalbandyan,,,Armenia,3,Park
3 Spenser Junction,Kępice,,77-230,Poland,49,Junction
35523 Golf View Parkway,Bolinao,,2406,Philippines,3,Pass
91 Oneill Terrace,Longqiao,,,China,4899,Point
2970 1st Trail,Ronneby,Blekinge,372 34,Sweden,8,Center
575 Portage Alley,18 de Marzo,Veracruz Llave,93294,Mexico,0074,Street
1 Artisan Avenue,Oliveira de Frades,Viseu,3680-077,Portugal,929,Lane
42730 Red Cloud Court,Quelimane,,,Mozambique,023,Hill
40717 Arizona Hill,Kaliro,,,Uganda,926,Lane
721 Brickson Park Alley,Sankanan,,8701,Philippines,49681,Pass
19 Northwestern Circle,Loma Bonita,Guerrero,41240,Mexico,53,Lane
1 Onsgard Crossing,Ngora,,,Uganda,79,Place
37202 Larry Place,Phủ Thông,,,Vietnam,46697,Terrace
86326 Mesta Circle,Bojong,,,Indonesia,16,Alley
9 Rigney Trail,Xiongguan,,,China,78,Road
0 Dryden Alley,Sharīfābād,,,Iran,0,Avenue
8601 Hazelcrest Lane,Naran Bulag,,,China,197,Way
14 Mallard Way,Jammā‘īn,,,Palestinian Territory,0,Junction
7123 Blue Bill Park Drive,Huazhai,,,China,383,Center
2903 Forster Circle,Myingyan,,,Myanmar,59094,Park
5 Quincy Road,Baltiysk,,238528,Russia,054,Drive
17571 Ronald Regan Alley,Suileng,,,China,361,Pass
331 Butterfield Crossing,Bobrovka,,457134,Russia,70884,Avenue
3 Village Green Lane,Ngrayun,,,Indonesia,88262,Place
83482 Mariners Cove Terrace,Makoko,,,Nigeria,3,Way
21 Longview Way,Taipa,,0420,New Zealand,75413,Crossing
3 Calypso Drive,Manis Mekarwangi,,,Indonesia,506,Lane
95 Tennessee Street,Şabāḩ as Sālim,,,Kuwait,5727,Road
5743 Montana Street,Zagoryanskiy,,141143,Russia,78910,Plaza
7545 Everett Lane,Topory,,,Ukraine,6,Place
1999 Linden Trail,Verkhniye Kigi,,452500,Russia,9460,Street
5 Lillian Circle,Al Baqāliţah,,,Tunisia,61674,Plaza
5322 Leroy Pass,La Paz Centro,,,Nicaragua,33,Point
1229 Hudson Point,Kankan,,,Guinea,76,Court
0 Waywood Lane,Noisy-le-Grand,Île-de-France,93883 CEDEX,France,590,Lane
496 Merrick Point,Qal‘at al Andalus,,,Tunisia,0591,Road
772 Scoville Place,Bonthe,,,Sierra Leone,592,Point
665 Boyd Pass,Redange-sur-Attert,,L-8511,Luxembourg,9974,Hill
99 Vera Lane,Andalan,,2305,Philippines,15,Parkway
335 Gale Point,Chum Phae,,40130,Thailand,27604,Lane
82112 Corscot Park,Oranjestad,,,"Bonaire, Saint Eustatius and Saba ",760,Road
7546 Tennyson Crossing,Iwakura,,999-0436,Japan,17716,Court
84949 Old Gate Court,Milwaukee,Wisconsin,53285,United States,2,Junction
12 Del Mar Terrace,Los Angeles,California,90005,United States,291,Circle
3 Randy Alley,Sadská,,289 12,Czech Republic,0849,Road
35145 Weeping Birch Crossing,Rana,Lisboa,2775-389,Portugal,27,Parkway
8319 Linden Place,Biris Daja,,,Indonesia,62,Way
933 Hanson Road,Sunzhuang,,,China,6560,Alley
460 Melvin Crossing,Otok,,40323,Croatia,49,Plaza
0 Surrey Junction,Uddevalla,Västra Götaland,451 32,Sweden,11337,Plaza
6156 Morrow Circle,Majan,,,Indonesia,87295,Street
53487 Kenwood Junction,Ketanggi,,,Indonesia,00,Alley
57436 Petterle Alley,Mocun,,,China,43,Street
60 Thackeray Center,Junshan,,,China,19,Trail
42171 Thierer Crossing,Espinal,,733529,Colombia,5093,Lane
769 Lien Court,Hlyboka,,,Ukraine,1383,Alley
1592 Russell Alley,Tobol,,,Kazakhstan,0,Crossing
3 Gale Lane,Rengasdengklok,,,Indonesia,0012,Trail
80339 Southridge Lane,Independencia,Mexico,56617,Mexico,70511,Hill
26 Goodland Street,Atawutung,,,Indonesia,7307,Way
8710 Oriole Alley,Bouaké,,,Ivory Coast,4767,Trail
00 Schiller Hill,Andrushivka,,,Ukraine,5911,Court
64 Dixon Center,Jasionów,,36-212,Poland,619,Drive
11 Melrose Court,Krasnokamensk,,662955,Russia,0699,Pass
385 Eagle Crest Alley,Anuling,,4501,Philippines,54,Lane
14718 Northland Street,Stockholm,Stockholm,106 32,Sweden,92,Court
43973 Clove Point,Acopiara,,63560-000,Brazil,46646,Circle
1 Glacier Hill Drive,Shenzhong,,,China,48,Plaza
25224 Starling Junction,Ābdānān,,,Iran,16253,Junction
95 Kennedy Street,Huaquirca,,,Peru,78112,Parkway
082 Sugar Lane,Kambove,,,Democratic Republic of the Congo,02765,Point
98 Steensland Drive,Awka,,,Nigeria,9,Trail
32879 Morning Circle,Pacajus,,62870-000,Brazil,56013,Way
29052 Dryden Center,Jām Sāhib,,76141,Pakistan,55,Lane
5 Graceland Park,Briceni,,MD-5114,Moldova,8,Hill
15 Shasta Court,Paarl,,7681,South Africa,867,Avenue
10711 Hanover Avenue,Tanguiéta,,,Benin,803,Road
97336 Lukken Center,Xiaomian,,,China,34,Point
2408 Burrows Drive,Denton,Texas,76205,United States,18,Hill
352 Aberg Place,Lokokrangan,,,Indonesia,68,Crossing
962 Huxley Pass,Dongshan,,,China,83,Pass
11609 Golden Leaf Avenue,Fovissste,Chihuahua,33980,Mexico,51624,Pass
26 American Ash Trail,Mpraeso,,,Ghana,9,Street
74 Anzinger Pass,Magugu,,,Tanzania,37,Court
95 Arapahoe Plaza,Nanganumba,,,Indonesia,45,Drive
679 Oak Valley Avenue,Évreux,Haute-Normandie,27929 CEDEX 9,France,8307,Point
17757 Florence Way,Kiboga,,,Uganda,19480,Crossing
1 Everett Park,Magisterial,Zacatecas,99750,Mexico,9,Circle
52073 Monica Circle,Pajić Polje,,,Bosnia and Herzegovina,6182,Park
30 Ridgeview Way,Zouila,,,Tunisia,58,Hill
815 Graceland Alley,Eskilstuna,Södermanland,632 32,Sweden,70967,Crossing
454 Village Place,Meziměstí,,549 81,Czech Republic,0671,Way
724 Valley Edge Circle,Pilot Butte,Saskatchewan,N8M,Canada,02107,Terrace
0227 Crest Line Terrace,Krechevitsy,,346020,Russia,96,Circle
6 Bartelt Way,Kangaslampi,,79480,Finland,1376,Lane
3569 Bultman Trail,Touying,,,China,1,Crossing
087 Calypso Way,Khiv,,368692,Russia,011,Junction
44664 Vahlen Hill,Armamar,Viseu,5110-125,Portugal,1590,Parkway
22 High Crossing Park,Obiaruku Quarters,,,Nigeria,51221,Court
00625 Canary Point,Forécariah,,,Guinea,05,Point
45 3rd Pass,Santo Niño,,6711,Philippines,96,Hill
4598 Independence Court,El Bolsón,,8430,Argentina,8846,Center
9 John Wall Crossing,Nikol’sk,,630025,Russia,1,Road
28140 Morrow Alley,Baitang,,,China,8602,Plaza
75 Jenna Court,Dzüünkharaa,,,Mongolia,3,Point
88765 Bobwhite Park,Niebocko,,36-207,Poland,395,Lane
2123 Hauk Drive,Shāhdādkot,,70211,Pakistan,6,Avenue
1 Westport Park,Ciulu,,,Indonesia,0,Park
58934 Arapahoe Junction,El Paso,Texas,79940,United States,0,Trail
306 Bartillon Place,Borodinskiy,,188961,Russia,1131,Hill
28 Arrowood Center,Bicos,,3126,Philippines,5273,Pass
8156 Mosinee Trail,Progreso,Chihuahua,31210,Mexico,3,Court
4 Autumn Leaf Court,Labrador City,Newfoundland and Labrador,A2V,Canada,28506,Plaza
0156 Meadow Vale Court,Yangkou,,,China,40,Plaza
221 Schiller Parkway,Guanghai,,,China,1,Hill
7818 Crownhardt Court,Wuluo,,,China,77,Junction
6 Petterle Place,Ouahigouya,,,Burkina Faso,597,Road
98630 Mariners Cove Plaza,Mistrató,,664028,Colombia,966,Center
7 South Trail,Baro,,2445,Philippines,316,Park
1930 Prairie Rose Pass,Leeuwarden,Provincie Friesland,8904,Netherlands,00970,Road
70185 Blaine Road,Oslo,Oslo,1257,Norway,19,Park
43385 Raven Park,Tsuruga,,957-0355,Japan,90113,Court
4 Mesta Terrace,Kekeri,,,Indonesia,6,Way
34847 Ronald Regan Alley,Selkirk,Manitoba,R1A,Canada,58,Point
2 Hovde Way,Margorejo,,,Indonesia,5383,Pass
695 Amoth Hill,Banshu,,,China,3,Point
10174 Maryland Crossing,Chatan,,904-0116,Japan,6354,Hill
132 Lawn Drive,Gaocang,,,China,21737,Circle
1245 Fordem Trail,Salzburg,Salzburg,5071,Austria,45,Pass
7487 Novick Street,Baochang,,,China,1,Pass
62 Sunnyside Place,Mache,,,Peru,72,Trail
059 Blaine Avenue,San Miguel,,10302,Costa Rica,8,Crossing
0 Hoffman Point,Quime,,,Bolivia,44640,Trail
47523 Kingsford Circle,San Vicente,,6419,Philippines,3257,Hill
26 Crest Line Circle,Oneop,,,Micronesia,1,Terrace
173 Stoughton Circle,Donggong,,,China,944,Plaza
46 Moulton Plaza,Aguas del Padre,,,Honduras,40207,Junction
20764 Clyde Gallagher Way,Tōno,,326-0036,Japan,71,Road
713 Stuart Way,Qujing,,,China,79585,Crossing
0 Montana Point,Mingshui,,,China,6738,Center
088 Clarendon Court,Jingmen,,,China,2570,Point
52645 Westerfield Place,Dembeni,,97660,Mayotte,07274,Way
82 Eagan Junction,Wenfang,,,China,72,Hill
978 Forest Dale Junction,Kabuynan,,8311,Philippines,902,Plaza
43 Hoffman Court,Solotcha,,391133,Russia,108,Junction
647 Superior Parkway,Svetogorsk,,188992,Russia,86904,Hill
78704 La Follette Street,Mari,,58345-000,Brazil,444,Pass
6254 Manufacturers Drive,Chiguata,,,Peru,60,Way
50 Fallview Street,Boroon,,9201,Philippines,93,Junction
6958 Elmside Terrace,Jambuwerkrajan,,,Indonesia,801,Way
93061 Boyd Parkway,Carregal,Aveiro,3800-854,Portugal,5,Junction
6 Hoard Street,Ořechov,,594 52,Czech Republic,46627,Point
33 Independence Alley,Villanueva,,9002,Philippines,01648,Pass
1949 Huxley Alley,Tongyuanpu,,,China,95,Road
55 Toban Trail,Kauhan,,,Indonesia,47,Pass
6 Nobel Plaza,Koltubanovskiy,,446521,Russia,139,Park
24775 Parkside Lane,Pedro Sánchez,,10514,Dominican Republic,23546,Place
27 Pine View Junction,Rangxi,,,China,36970,Parkway
16 Amoth Plaza,Uherské Hradiště,,686 05,Czech Republic,43756,Pass
1404 Reinke Center,Kimry,,171508,Russia,1503,Center
650 Annamark Street,Kamionka Wielka,,33-334,Poland,9912,Park
45 Buena Vista Junction,Araçatuba,,16000-000,Brazil,65157,Drive
38 Heath Trail,Brampton,England,NR34,United Kingdom,1,Street
19501 Westerfield Alley,Cumba,,,Peru,7819,Plaza
417 Derek Center,Saseel,,,Indonesia,81,Road
05 Petterle Place,Chixi,,,China,146,Court
159 Forest Plaza,Pasiragung,,,Indonesia,8,Court
708 Sundown Place,Torbay,Newfoundland and Labrador,A1K,Canada,1146,Center
8 Lawn Avenue,Pregonero,,,Venezuela,37,Drive
50583 Bunting Point,Xin’e,,,China,2359,Way
6311 High Crossing Plaza,Sannikovo,,658059,Russia,3,Trail
06 Sachtjen Avenue,Qiting,,,China,2367,Court
34104 Mayfield Center,Colquemarca,,,Peru,32,Alley
04 Holmberg Trail,Muarabadak,,,Indonesia,9425,Road
6 Mosinee Alley,Carmen,,9408,Philippines,767,Trail
18732 Thierer Circle,Le Mans,Pays de la Loire,72080 CEDEX 9,France,3,Point
080 Kings Hill,Jarigue,,9407,Philippines,15,Court
098 Melrose Place,Yelizavetinskoye,,356407,Russia,567,Alley
82428 Brown Terrace,Sathon,,10130,Thailand,44,Place
16 Dennis Avenue,Palpalá,,4612,Argentina,1,Place
72 Pennsylvania Terrace,Xiheshan,,,China,5,Parkway
8 Elgar Park,El Tambo,,522068,Colombia,90306,Circle
79737 Troy Pass,Atamyrat,,,Turkmenistan,435,Point
14709 Melody Trail,Da’an,,,China,45,Circle
0885 Bellgrove Lane,Khōshāmand,,,Afghanistan,22,Road
8 Oxford Court,Rivadavia,,3081,Argentina,903,Crossing
04807 Westerfield Hill,Shiye,,,China,84,Place
31404 Spohn Park,Huangbizhuang,,,China,6,Drive
96 Sundown Court,Pittsburgh,Pennsylvania,15240,United States,0,Terrace
0 Northfield Terrace,Obršani,,7509,Macedonia,43280,Trail
0348 Mariners Cove Point,Old City,,,Palestinian Territory,584,Drive
186 Buena Vista Drive,Pantijan No 2,,4133,Philippines,1,Lane
681 Menomonie Way,Alvarães,,69475-000,Brazil,03586,Crossing
7 Elgar Avenue,Kembangkerang Satu,,,Indonesia,3354,Place
5936 Kipling Center,Palestina,,6037,Philippines,8,Place
27 Vera Hill,Chengtou,,,China,44,Street
583 Buell Drive,Stockholm,Stockholm,101 56,Sweden,60127,Trail
79 Oakridge Alley,San Miguel,,10302,Costa Rica,235,Place
89919 Eliot Center,Meijiang,,,China,9462,Circle
9242 Novick Junction,Ban Phai,,40110,Thailand,551,Park
257 Commercial Terrace,Damanhūr,,,Egypt,14373,Lane
5379 Straubel Circle,Rudnichnyy,,307505,Russia,4,Trail
4 Springview Court,Arnprior,Ontario,K7S,Canada,81,Center
74 Mesta Drive,Koygorodok,,168170,Russia,5,Terrace
050 Glacier Hill Trail,Krajanbaturno,,,Indonesia,188,Plaza
06565 North Plaza,Nanlang,,,China,7,Center
0 Anthes Drive,Cateel,,9220,Philippines,91895,Pass
045 Marquette Street,Genzi,,,China,63984,Junction
466 Bunker Hill Hill,Oratorio,,06006,Guatemala,337,Park
592 4th Center,Qibu,,,China,610,Lane
95733 Hanson Center,Lyudinovo,,249406,Russia,07,Trail
691 Lake View Center,Luokou,,,China,28697,Drive
32920 Loeprich Drive,Komatsu,,999-8317,Japan,7461,Drive
9884 Helena Terrace,Lammi,,16901,Finland,56,Court
008 Mcguire Parkway,Säffle,Värmland,661 31,Sweden,8627,Court
11502 Washington Trail,Dusit,,10300,Thailand,54,Junction
7 Luster Avenue,Zdovbytsya,,,Ukraine,78,Crossing
2 Becker Terrace,Františkovy Lázně,,351 01,Czech Republic,3,Center
41213 Eagan Plaza,Kiryū,,379-2314,Japan,943,Street
2010 Warner Crossing,Nong Muang,,15170,Thailand,7547,Trail
6984 Golden Leaf Drive,Jalasenga,,,Indonesia,01,Trail
315 American Ash Way,Magsalangi,,2624,Philippines,73,Drive
6232 Mcguire Road,Jingu,,,China,352,Road
93 Pankratz Parkway,Haitang,,,China,5,Plaza
5211 Grayhawk Pass,Aībak,,,Afghanistan,23,Road
04 Barby Junction,Sevan,,,Armenia,65,Place
0 Bay Terrace,Black River,,,Jamaica,70,Hill
039 Rockefeller Circle,Malichang,,,China,40598,Center
9 Park Meadow Circle,"Coruña, A",Galicia,15190,Spain,46618,Road
93 Sunbrook Center,San Casimiro,,4332,Philippines,80,Hill
4011 Huxley Hill,Sampagar,,1160,Philippines,25,Trail
0689 Fulton Parkway,Ganlin,,,China,529,Drive
43 Maple Way,Novomichurinsk,,216464,Russia,71168,Way
01 Iowa Lane,Tanggulangin,,,Indonesia,841,Street
207 Corben Center,Karlskoga,Örebro,691 26,Sweden,96291,Terrace
06 Barby Avenue,Amieirinha,Leiria,2430-024,Portugal,970,Terrace
58 Birchwood Place,Cofimvaba,,5382,South Africa,6,Avenue
69 West Parkway,Gitega,,,Burundi,90921,Drive
3 Corscot Lane,Ribeirão da Ilha,,38530-000,Brazil,3,Plaza
449 Heath Center,Fengyang,,,China,49972,Lane
72556 Clarendon Place,Puračić,,,Bosnia and Herzegovina,8,Court
15 Maple Wood Circle,Dalsjöfors,Västra Götaland,516 31,Sweden,241,Street
254 Pepper Wood Center,Muye,,,China,88,Drive
4410 Clemons Hill,Khawr Fakkān,,,United Arab Emirates,46,Court
745 Old Shore Center,Panjir,,,Indonesia,7884,Pass
3 Heffernan Alley,Uberlândia,,38400-000,Brazil,85238,Road
24143 Monica Alley,Brudzew,,62-720,Poland,10721,Crossing
48 Logan Plaza,Petaluma,California,94975,United States,8751,Way
87931 Manley Avenue,Mukařov,,411 45,Czech Republic,4,Drive
7 Brickson Park Parkway,Gampaha,,11000,Sri Lanka,039,Park
68375 Iowa Center,Shanhe,,,China,05,Junction
28 La Follette Junction,Bestovje,,10437,Croatia,708,Junction
683 Warbler Trail,Guzhuyingzi,,,China,67570,Avenue
0482 Sheridan Center,Pedreira,,13920-000,Brazil,1,Pass
483 Oneill Parkway,Nikol’skoye,,678214,Russia,1,Road
18 Mandrake Hill,Helmsange,,L-7270,Luxembourg,80599,Lane
7185 Holmberg Drive,Ongabelen,,,Indonesia,3122,Park
2267 Reinke Parkway,Al Qaţn,,,Yemen,4,Way
646 Gateway Junction,Athi River,,,Kenya,41,Crossing
30 Dahle Court,Dihtyari,,,Ukraine,195,Place
0046 Dixon Park,Tekeli,,,Kazakhstan,7680,Terrace
46539 Esch Drive,Rogowo,,88-420,Poland,559,Terrace
95 Kedzie Circle,Hōjō,,799-2441,Japan,76104,Place
9 Bartillon Hill,Sa Bot,,15240,Thailand,7865,Pass
436 Eliot Lane,Qinggang,,,China,51727,Crossing
4684 Mendota Court,Sufang,,,China,89431,Street
5 Mosinee Drive,Kamenka,,412378,Russia,87,Plaza
26 Weeping Birch Drive,Campo,Braga,4715-477,Portugal,5890,Junction
9 Mcguire Crossing,Arendal,Aust-Agder,4808,Norway,1,Way
01 Toban Road,Xiaozhoushan,,,China,675,Hill
1942 8th Pass,Kampánis,,,Greece,0761,Parkway
2 Farragut Drive,Shīrvān,,,Iran,44,Crossing
0 Schmedeman Park,Kuantan,Pahang,25532,Malaysia,740,Junction
4 Glendale Plaza,Tsapêraī,,,Afghanistan,574,Pass
96699 Portage Point,Aginskoye,,663580,Russia,75646,Drive
87 Crowley Court,Locminé,Bretagne,56504 CEDEX,France,059,Hill
289 Graedel Way,Gongnong,,,China,9,Crossing
1963 Manufacturers Alley,Kokkini Trimithia,,,Cyprus,935,Road
6997 Lake View Junction,Riyom,,,Nigeria,21,Alley
8989 Glacier Hill Center,Čejkovice,,671 65,Czech Republic,56,Parkway
6652 Granby Hill,Citeguh,,,Indonesia,36527,Place
655 Dayton Hill,Fresno,,731568,Colombia,888,Crossing
617 6th Circle,Cikulina,,,Indonesia,52001,Pass
37 Green Crossing,San Francisco,Veracruz Llave,95710,Mexico,881,Court
7 Swallow Park,Hekou,,,China,74,Road
73020 Pierstorff Place,Sanlidian,,,China,991,Junction
2961 Miller Park,Linzi,,,China,210,Terrace
06 Linden Pass,Vale Mourão,Lisboa,2635-466,Portugal,4666,Road
93 Susan Trail,Gbarnga,,,Liberia,81249,Pass
82879 Oak Court,Baiqiao,,,China,2824,Pass
402 Ludington Parkway,Soritor,,,Peru,38,Place
6 Hayes Drive,Rāiwind,,55150,Pakistan,8,Terrace
368 Glacier Hill Parkway,Ilhabela,,11630-000,Brazil,3,Lane
074 Elgar Court,Agana Heights Village,,96929,Guam,28299,Street
7474 New Castle Parkway,Prelog,,40323,Croatia,88,Crossing
3 6th Hill,Madala,,,Nigeria,0346,Hill
9 Bunker Hill Place,Kilcullen,,Y25,Ireland,735,Center
965 Waxwing Center,Panjakent,,,Tajikistan,276,Avenue
8 Northfield Lane,Xiaozhi,,,China,98462,Place
83172 Old Gate Avenue,Shekou,,,China,9,Avenue
5 South Drive,Kohtla-Järve,,,Estonia,84296,Place
3327 Acker Hill,Béthune,Nord-Pas-de-Calais,62404 CEDEX,France,958,Crossing
9 Morrow Junction,Satu Nou,Vaslui,737513,Romania,8,Court
4828 Bluestem Terrace,Newark,Delaware,19714,United States,9,Place
1 Arkansas Way,Qiangqinxue,,,China,28,Street
4197 Norway Maple Junction,Kuantan,Pahang,25610,Malaysia,637,Street
31 Eggendart Alley,Fuyu,,,China,680,Street
25 Schurz Alley,Makale,,,Indonesia,23548,Road
18747 La Follette Crossing,Murcia,Murcia,30010,Spain,398,Way
2474 Muir Point,Nangger,,,Indonesia,0,Center
0 Eagle Crest Pass,General Pico,,6360,Argentina,53526,Drive
28 Gateway Place,Kertayuga,,,Indonesia,76,Hill
247 Mockingbird Park,Dongda,,,China,6,Center
06249 Tomscot Park,Goiás,,76600-000,Brazil,80,Park
94 Rowland Court,Moramanga,,,Madagascar,7,Parkway
14499 Emmet Lane,Hrtkovci,,,Serbia,55,Lane
0 Glendale Parkway,Biwer,,L-6834,Luxembourg,694,Crossing
7999 Westport Center,Balugo,,1001,Philippines,10,Lane
7510 Vernon Point,Tiegai,,,China,462,Plaza
9 Maple Pass,Turkestan,,,Kazakhstan,72,Pass
91281 Hanson Point,Donji Dobrić,,,Serbia,2,Way
27 Shasta Hill,Teongtoda,,,Indonesia,2240,Lane
2990 Ridge Oak Way,Coris,,,Peru,16077,Alley
46217 Center Center,Ŭiju,,,North Korea,1981,Pass
041 Merry Point,Lenger,,,Kazakhstan,73,Point
605 Carioca Way,Além Paraíba,,36660-000,Brazil,809,Circle
60986 Linden Plaza,Baz,,,Albania,96206,Trail
7 Express Point,La Laja,,,Chile,63,Drive
58233 Sunnyside Lane,Kristinehamn,Värmland,681 54,Sweden,065,Avenue
11788 Green Park,Hirado,,276-0017,Japan,5198,Trail
526 Luster Plaza,Annaka,,379-0116,Japan,48895,Avenue
8593 Sheridan Street,Calais,Nord-Pas-de-Calais,62907 CEDEX,France,0,Crossing
525 Lukken Crossing,Azovo,,646880,Russia,68,Avenue
2 Main Drive,Mogi Mirim,,13800-000,Brazil,96,Drive
1 Paget Parkway,Carmelo,,9212,Philippines,35,Center
8 Clove Junction,Maguan,,,Indonesia,5,Circle
14 Independence Plaza,Quimbaya,,634027,Colombia,580,Avenue
146 Northport Center,Waiholo,,,Indonesia,015,Court
124 Bartillon Park,Jönköping,Jönköping,553 33,Sweden,2238,Junction
0946 Welch Hill,Kamsack,Saskatchewan,R2J,Canada,563,Pass
52 La Follette Park,Ondoy,,5607,Philippines,685,Terrace
183 Lunder Terrace,Qaryat ad Da‘īs,,,Yemen,5,Point
80 Sycamore Alley,Santa Catalina,,,Venezuela,94231,Crossing
6 Bellgrove Hill,Darenzhuang,,,China,942,Trail
4819 Helena Park,Bukbatang,,,Indonesia,88339,Circle
39712 Artisan Park,Ishikari,,637-0404,Japan,422,Plaza
873 Valley Edge Alley,Parobé,,95630-000,Brazil,55,Circle
4 Mccormick Plaza,Wiang Chiang Rung,,57210,Thailand,5,Circle
95 Muir Hill,Nagbacalan,,2902,Philippines,17,Pass
44 Stoughton Alley,Malvas,,,Peru,4076,Terrace
16504 Morrow Center,Mamonit,,2304,Philippines,968,Way
927 Vidon Circle,Videm pri Ptuju,,2284,Slovenia,57301,Parkway
8 Rigney Road,Artemisa,,,Cuba,9,Street
8452 Crest Line Park,Energeticheskiy,,,Kazakhstan,1,Alley
79539 John Wall Junction,Iznoski,,658476,Russia,90,Street
908 Pearson Point,Algés,Lisboa,1495-005,Portugal,3,Alley
0 Upham Circle,Derhachi,,,Ukraine,169,Hill
6 Johnson Trail,Osiek,,87-340,Poland,5,Lane
3 Thackeray Road,Benešov,,679 53,Czech Republic,9913,Crossing
04 Crest Line Drive,Acandí,,278018,Colombia,8,Parkway
3503 Holmberg Parkway,Mancagahar,,,Indonesia,0,Crossing
624 Basil Crossing,Maguan,,,China,166,Alley
62500 Sage Junction,Barrancas,,,Venezuela,44,Junction
27 Fieldstone Circle,Lyon,Rhône-Alpes,69406 CEDEX 03,France,7,Lane
211 Pawling Terrace,Grujugan,,,Indonesia,36,Point
988 Grayhawk Lane,Aţ Ţurrah,,,Jordan,7000,Junction
409 Northland Trail,Iwata,,925-0145,Japan,92,Pass
5 Elka Terrace,Kavieng,,,Papua New Guinea,1235,Hill
18 Cardinal Terrace,Skópelos,,,Greece,4,Center
4483 Erie Road,Godziszów Pierwszy,,23-302,Poland,803,Terrace
74 Fairfield Point,Villach,Kaernten,9580,Austria,62915,Park
70 Straubel Plaza,Washington,District of Columbia,56944,United States,01160,Drive
746 Jenifer Road,L'viv,,,Ukraine,714,Junction
28 Evergreen Avenue,Czchów,,32-860,Poland,142,Lane
38119 Vermont Street,Oklahoma City,Oklahoma,73129,United States,4,Plaza
492 Carberry Junction,Pendembu,,,Sierra Leone,9874,Plaza
74 3rd Center,Morales,,18004,Guatemala,29141,Circle
07820 Utah Plaza,Quillabamba,,,Peru,1,Way
743 Mandrake Trail,Ellinikó,,,Greece,8204,Park
39479 Mcbride Point,Barakani,,,Comoros,3,Way
2 Lerdahl Street,Klang,Selangor,41720,Malaysia,47,Drive
18006 Scofield Center,Pukou,,,China,6573,Crossing
0171 Autumn Leaf Trail,Banjar Tiga,,,Indonesia,32671,Center
972 Summit Plaza,Shipaidong,,,China,92594,Center
68283 Meadow Vale Avenue,Pasar Kulon,,,Indonesia,53167,Plaza
4470 Florence Center,Necoclí,,057878,Colombia,85,Drive
8 Sachtjen Circle,Independencia,Michoacan De Ocampo,60070,Mexico,53155,Parkway
580 Trailsway Crossing,Jiangyin,,,China,57,Crossing
307 Carey Place,Jombang,,,Indonesia,925,Avenue
2043 Anniversary Terrace,Al Ḩarf,,,Yemen,72,Way
78405 Rockefeller Way,Marull,,5139,Argentina,1,Court
9298 Cody Lane,Lindome,Västra Götaland,437 36,Sweden,8,Court
21703 Merchant Center,Akron,Ohio,44310,United States,7533,Alley
5685 Ridge Oak Place,Pułtusk,,06-102,Poland,955,Circle
19 Eggendart Place,Zhukovka,,242731,Russia,268,Road
526 Corry Junction,That Phanom,,48110,Thailand,6,Place
50463 Fairfield Point,Babice,,37-754,Poland,12,Lane
04 Canary Trail,Moquegua,,,Peru,97914,Way
38666 Tomscot Trail,Joaquín V. González,,4448,Argentina,60460,Junction
749 Fieldstone Park,Paôy Pêt,,,Cambodia,9,Junction
2 Heath Hill,Shangdongjie,,,China,61,Park
61 Upham Avenue,Qiaoxi,,,China,3069,Alley
8841 Hudson Terrace,Itu,,13300-000,Brazil,5478,Pass
4 Fordem Avenue,Baokou,,,China,17,Avenue
33945 Hooker Street,Beaumont,Texas,77705,United States,0,Drive
25 Maryland Plaza,Aulnay-sous-Bois,Île-de-France,93616 CEDEX,France,01,Terrace
41976 Mcbride Crossing,Capilla del Monte,,5184,Argentina,03,Crossing
60683 7th Hill,Molde,More og Romdal,6413,Norway,4,Drive
1 Ridgeway Alley,Horqueta,,,Paraguay,707,Way
34984 School Circle,Jinchuan,,,China,3,Place
6945 Spohn Pass,Buchlovice,,687 08,Czech Republic,7,Park
064 Meadow Vale Terrace,Kedungwringin,,,Indonesia,895,Road
89073 Redwing Center,Trà Vinh,,,Vietnam,9868,Junction
8933 Melrose Way,Qincheng,,,China,48446,Junction
759 Twin Pines Lane,Wanghu,,,China,34,Road
2 Thackeray Place,Horokhiv,,,Ukraine,2,Drive
37 Park Meadow Center,Sherbrooke,Québec,J1K,Canada,7107,Alley
60583 Columbus Drive,Xianxi,,,China,33,Park
54045 Dwight Lane,Skuratovskiy,,301070,Russia,541,Terrace
904 Badeau Drive,Chikushino-shi,,818-0138,Japan,61,Lane
427 Dwight Road,Firmat,,2630,Argentina,221,Avenue
86180 Ryan Pass,Sidu,,,China,118,Drive
455 Prairie Rose Circle,Xiangshan,,,China,26289,Drive
7 Forest Run Plaza,Xiongshan,,,China,87,Way
66 Superior Drive,San Antonio,Oaxaca,71200,Mexico,52,Crossing
42926 Holy Cross Circle,Mercedes,,3470,Argentina,7,Circle
08941 Linden Street,Bachaquero,,,Venezuela,269,Plaza
1 Judy Trail,Qingyang,,,China,3,Trail
79616 Melvin Terrace,Ambovombe,,,Madagascar,43449,Lane
59 Grover Court,Panimbang,,,Indonesia,929,Alley
605 Rieder Lane,Monte Novo,Beja,7780-256,Portugal,93239,Alley
1210 Grayhawk Street,Hīsh,,,Syria,42098,Point
44 Green Alley,Radojevo,,,Serbia,467,Crossing
7 Village Circle,Silveiros,Braga,4775-224,Portugal,786,Way
0820 Laurel Hill,Akim Oda,,,Ghana,9,Avenue
4 Hanson Crossing,Gonghe,,,China,9,Crossing
438 Ridge Oak Lane,Artsvanist,,,Armenia,501,Street
7 Warbler Avenue,Fontana,,3514,Argentina,3625,Trail
1244 Elmside Hill,Senador Pompeu,,63600-000,Brazil,2427,Park
4041 Green Road,Gramoteino,,652660,Russia,033,Hill
586 2nd Road,Vsevolozhsk,,188649,Russia,86,Pass
215 Rusk Court,Fengjiang,,,China,510,Place
342 Victoria Hill,Batur Kidul,,,Indonesia,52482,Trail
06944 East Lane,Thị Trấn Sìn Hồ,,,Vietnam,0948,Place
7 Monument Center,Tamot,,93160,Thailand,1235,Circle
6407 Fieldstone Pass,Cañas,,50601,Costa Rica,0197,Road
63831 Corscot Avenue,Yatunpu,,,China,11825,Trail
704 Eliot Lane,Bunder,,,Indonesia,1529,Court
54053 Loeprich Alley,Perushtitsa,,4225,Bulgaria,0,Circle
86 Rowland Place,Zaklików,,37-470,Poland,78962,Junction
98227 Messerschmidt Lane,Dzerzhinsk,,664511,Russia,2,Pass
40 Norway Maple Junction,Longtian,,,China,394,Drive
875 Spenser Way,Duqiong,,,China,5069,Circle
862 Manufacturers Road,Hedao,,,China,7978,Circle
9 Oriole Junction,Rennes,Bretagne,35087 CEDEX,France,84,Point
37 Granby Lane,Payxambabazar,,,China,614,Park
6699 Fisk Place,Huaquillas,,,Ecuador,2244,Court
297 Canary Trail,Lagoa do Itaenga,,55840-000,Brazil,68,Plaza
9305 Di Loreto Circle,Vargem Grande do Sul,,13880-000,Brazil,96,Junction
969 1st Crossing,Atafu Village,,,Tokelau,4,Crossing
627 Monument Place,Pakuncen,,,Indonesia,2978,Crossing
7762 Oak Trail,Starodub,,243240,Russia,4975,Parkway
32366 Holmberg Terrace,Kakaek,,,Indonesia,561,Center
03 Jenifer Park,Rudna Mała,,36-062,Poland,0678,Hill
89754 Golf Junction,Piteå,Norrbotten,941 22,Sweden,0431,Street
94611 Carpenter Way,Ruixi,,,China,10,Terrace
158 Sunnyside Place,Fengchan,,,China,0506,Court
348 Bashford Crossing,Orsha,,170513,Russia,71,Junction
16 Briar Crest Circle,Metz,Lorraine,57032 CEDEX 01,France,7,Pass
33 Bultman Pass,Santa Maria,Mexico,51009,Mexico,58904,Avenue
831 Pond Drive,Pamoyanan,,,Indonesia,0,Place
210 Mallard Road,Pępowo,,63-830,Poland,332,Plaza
0482 Ramsey Alley,Bureya,,676701,Russia,48,Street
3345 Reinke Trail,Andong,,,South Korea,0,Court
5513 Mcguire Center,Guangang,,,China,5655,Plaza
58163 Dixon Terrace,Zyukayka,,617110,Russia,75687,Place
57 Sloan Plaza,Shijie,,,China,2941,Point
3 Cody Crossing,Baiyang,,,China,37663,Circle
176 Brown Place,Longtian,,,China,72,Trail
2757 Maple Wood Avenue,Pictou,Nova Scotia,M1M,Canada,7,Way
1 Badeau Lane,Mandōl,,,Afghanistan,1,Park
2616 Armistice Place,Niquinohomo,,,Nicaragua,22,Court
644 Riverside Trail,Berber,,,Sudan,6317,Way
71260 Anhalt Alley,Jorok Dalam,,,Indonesia,7,Plaza
9668 Porter Junction,Brive-la-Gaillarde,Limousin,19117 CEDEX,France,612,Street
90898 Garrison Hill,Pankshin,,,Nigeria,50,Avenue
76 Myrtle Crossing,Xianyan,,,China,04,Hill
04088 Carberry Court,Siumate,,,Indonesia,7890,Place
085 Cody Alley,Darkovice,,747 17,Czech Republic,62362,Parkway
2 Elmside Hill,Urrao,,056838,Colombia,6511,Hill
9956 Derek Park,Fukuchiyama,,620-1445,Japan,377,Hill
59 Londonderry Road,Jammā‘īn,,,Palestinian Territory,165,Plaza
768 Cardinal Hill,Sukorejo,,,Indonesia,90,Center
572 Banding Place,Lamphun,,51000,Thailand,21183,Park
433 Artisan Avenue,Tapiramutá,,44840-000,Brazil,95532,Way
599 Hanson Center,Flor da Rosa,Portalegre,7430-215,Portugal,28,Court
74000 Commercial Circle,Vani,,,Georgia,8226,Lane
2010 Delladonna Alley,Nacka,Stockholm,131 46,Sweden,421,Pass
3 Valley Edge Place,Gaoqiao,,,China,23,Trail
110 3rd Trail,Jinniu,,,China,856,Parkway
939 Atwood Terrace,Boronów,,42-283,Poland,0,Trail
01187 Northwestern Trail,Si Narong,,34000,Thailand,322,Avenue
2133 Paget Parkway,Tegalgede Kulon,,,Indonesia,21,Road
8011 Lerdahl Terrace,Michałów,,28-411,Poland,44263,Park
343 Spaight Circle,Vyritsa,,188382,Russia,53,Road
331 Cambridge Center,Nan’an,,,China,86,Terrace
500 Bay Point,Las Matas de Farfán,,11809,Dominican Republic,8307,Circle
6944 Bowman Avenue,Pórto Chéli,,,Greece,4300,Circle
73269 Lawn Road,Zaječov,,267 63,Czech Republic,96333,Crossing
56230 Golf Point,Shuiting,,,China,05322,Pass
2 Stuart Alley,Sekondi-Takoradi,,,Ghana,3,Court
62836 Fairview Court,Babakankadu,,,Indonesia,60,Crossing
6 Buell Street,Sanhe,,,China,417,Way
5479 Northwestern Plaza,Dobšice,,671 82,Czech Republic,42601,Hill
67227 Cody Alley,Gazanjyk,,,Turkmenistan,59717,Crossing
52 Hanson Crossing,Binalonan,,2436,Philippines,09,Hill
9 Bonner Parkway,Lilongwe,,,Malawi,4921,Crossing
5 Upham Hill,Santa Ana,,,Peru,91009,Avenue
4541 Texas Place,Youyun,,,China,2,Circle
9 Independence Junction,Ayrihuanca,,,Peru,0,Court
554 Continental Street,Vicente Guerrero,Puebla,75212,Mexico,38,Plaza
94845 Morning Trail,Zheshan,,,China,9,Plaza
70523 Superior Crossing,Lagawe,,3600,Philippines,455,Park
40 Sachs Terrace,Paritjunus,,,Indonesia,335,Park
0 Harbort Avenue,Pasireurih,,,Indonesia,143,Place
42 Sherman Pass,Sudogda,,601352,Russia,797,Plaza
264 Clove Circle,Baiba,,,China,69,Center
0 Claremont Court,Mölndal,Västra Götaland,431 10,Sweden,57,Court
946 Northland Junction,Newark,New Jersey,07112,United States,2,Place
0949 Towne Place,Wangbuzhuang,,,China,24,Point
2801 Summit Trail,Durham,North Carolina,27717,United States,24890,Plaza
613 Park Meadow Plaza,Třebíč,,674 01,Czech Republic,552,Park
6 Independence Trail,Mantar,,,Indonesia,6,Park
7321 Pennsylvania Crossing,Palopo,,,Indonesia,826,Lane
66380 Northport Trail,Kroczyce,,42-425,Poland,699,Circle
1516 Waubesa Court,Juliaca,,,Peru,971,Pass
951 Pepper Wood Crossing,Russkaya Polyana,,646780,Russia,8,Crossing
24840 Kingsford Pass,Mpulungu,,,Zambia,771,Terrace
029 Dorton Center,Saint-Cloud,Île-de-France,92214 CEDEX,France,45495,Lane
75296 Porter Avenue,Zalaegerszeg,Zala,8909,Hungary,960,Drive
813 Reinke Park,Barbacoas,,,Venezuela,8065,Drive
10095 Fisk Place,Tianjin,,,China,60853,Street
7 Paget Drive,Doug An,,,Vietnam,78344,Park
34526 Morningstar Center,Zhangdian,,,China,1,Place
43 Vera Crossing,Zambrów,,18-301,Poland,88863,Trail
9 Hagan Pass,Krasnohrad,,,Ukraine,99854,Court
5 Kropf Trail,Potongan,,,Indonesia,6392,Plaza
32 Monument Terrace,Fazhan,,,China,18,Terrace
09 Granby Trail,Ra-ngae,,96130,Thailand,26,Terrace
42 Trailsway Street,Kamiennik,,48-388,Poland,765,Lane
3101 Delladonna Way,Solna,Stockholm,171 49,Sweden,6,Parkway
378 Dawn Crossing,Abengourou,,,Ivory Coast,85,Road
1187 Main Point,Patea,,4545,New Zealand,33,Center
8 Prairieview Parkway,Babakandesa,,,Indonesia,22638,Court
4976 South Hill,Panyambungan,,,Indonesia,274,Hill
293 Harbort Road,Khok Sung,,27120,Thailand,91,Avenue
2765 Corben Road,Ibeto,,,Nigeria,5,Park
65159 Lakewood Gardens Park,Alunda,Uppsala,747 30,Sweden,9927,Alley
6224 Riverside Point,Beauharnois,Québec,J6N,Canada,2,Drive
7 Coolidge Place,Erie,Pennsylvania,16565,United States,396,Crossing
755 Briar Crest Way,Nggalak,,,Indonesia,50,Pass
57 Sutherland Way,Jiuting,,,China,6,Drive
53678 Mandrake Crossing,Bone South,,1052,Philippines,04,Park
891 Pine View Center,Bridgetown,,,Barbados,90,Place
92 Sutherland Parkway,Biritiba Mirim,,08940-000,Brazil,60225,Alley
711 Dunning Center,Lucé,Centre,28114 CEDEX,France,32932,Circle
4344 Manufacturers Road,Wilkes Barre,Pennsylvania,18763,United States,22162,Trail
504 Ridgeview Lane,Duqu,,,China,21,Center
7 Spenser Pass,Sáchica,,154047,Colombia,107,Park
3 Namekagon Place,Nikol’skoye,,678214,Russia,23,Crossing
54298 Rockefeller Junction,Jastrebarsko,,10450,Croatia,0484,Terrace
738 Stoughton Trail,Hongor,,,Mongolia,92740,Parkway
54730 Mcguire Pass,Dongdong,,,China,22988,Parkway
0 Pepper Wood Hill,Piritiba,,44830-000,Brazil,65,Road
8 Aberg Point,Iranduba,,69405-000,Brazil,6035,Center
921 Pierstorff Park,Boise,Idaho,83732,United States,670,Point
2 Mariners Cove Road,Paragominas,,68625-000,Brazil,2,Junction
7 Northview Center,Plovdiv,,4000,Bulgaria,26300,Parkway
55 Manitowish Point,Santo Tomas,,,Peru,050,Center
4 Atwood Lane,Miyazaki-shi,,889-1716,Japan,52,Court
0847 Huxley Point,San Jose,,8427,Philippines,850,Drive
15298 Sullivan Junction,Vila Chã,Aveiro,3720-727,Portugal,87,Parkway
26719 Nevada Trail,Jakhaly,,,Gambia,08701,Avenue
2 High Crossing Parkway,Banjar Pekandelan,,,Indonesia,4,Alley
4 Melvin Junction,Lubowidz,,09-304,Poland,64,Court
470 Jana Pass,Zhenhai,,,China,2,Park
0 Continental Parkway,Jargalant,,,Mongolia,703,Park
44 Nancy Trail,Xihu,,,China,4853,Junction
74815 Corben Crossing,Kakogawachō-honmachi,,676-0828,Japan,8,Lane
8 Mifflin Way,Changchi,,,China,7763,Avenue
7 Magdeline Way,Longwan,,,China,638,Plaza
981 Londonderry Avenue,Luoting,,,China,9575,Center
218 Schiller Trail,Las Palmas,Oaxaca,71984,Mexico,8,Circle
28 Waxwing Pass,Adtugan,,8716,Philippines,7685,Hill
16 Jenna Crossing,Santiago de Cuba,,,Cuba,25,Road
124 Norway Maple Park,Łubnice,,98-432,Poland,8,Road
700 Bowman Junction,Al Fūlah,,,Sudan,57,Avenue
74549 Schlimgen Street,Nkpor,,,Nigeria,46,Terrace
2 Waubesa Plaza,Thymianá,,,Greece,22314,Junction
1503 Sloan Trail,San Patricio,,,Paraguay,5,Plaza
83 Dixon Road,Xiangfu,,,China,9,Road
50720 Mendota Circle,Sena Madureira,,69940-000,Brazil,9,Center
53 Buell Alley,Willemstad,,,Curacao,72070,Trail
68 Farwell Junction,Dawuhan,,,Indonesia,4317,Alley
28019 Forster Center,Nu’erbage,,,China,3347,Terrace
08 Novick Alley,Gribanovskiy,,397243,Russia,323,Street
345 Reindahl Hill,Oklahoma City,Oklahoma,73190,United States,714,Avenue
694 Loftsgordon Terrace,Zhishan,,,China,181,Plaza
1582 Ryan Street,Mayuge,,,Uganda,3,Center
23535 Delaware Street,Şabrātah,,,Libya,5936,Hill
5543 Fallview Street,Chengdong,,,China,22,Place
6122 Park Meadow Junction,Korisós,,,Greece,9089,Street
1 Florence Point,Santiaoshi,,,China,1152,Avenue
05 Summerview Avenue,La Reforma,Veracruz Llave,94724,Mexico,8,Alley
100 Northwestern Circle,Ostrožská Lhota,,687 23,Czech Republic,98429,Court
68 Drewry Terrace,Gucheng,,,China,82602,Terrace
59504 Monterey Road,Kaduseeng,,,Indonesia,1537,Terrace
1 Basil Court,Banja Luka,,,Bosnia and Herzegovina,237,Pass
2909 Bobwhite Avenue,Limoges,Limousin,87046 CEDEX 1,France,9,Alley
351 Lakeland Way,Kyra,,674250,Russia,6869,Drive
635 Center Hill,Dongshan,,,China,9455,Plaza
19556 Mallory Parkway,Cicayur,,,Indonesia,74402,Court
95 Monterey Center,Shangsanji,,,China,013,Way
02945 Lawn Hill,Cihaurbeuti,,,Indonesia,1744,Alley
6 Upham Junction,Hacıqabul,,,Azerbaijan,992,Court
691 Artisan Lane,Kassala,,,Sudan,352,Trail
06 Claremont Pass,Paringin,,,Indonesia,055,Point
00 Montana Parkway,Gaozhou,,,China,35227,Court
78829 Tony Drive,Pederneiras,,17280-000,Brazil,94,Park
4981 Cambridge Drive,Khao Wong,,46160,Thailand,57,Point
07129 Rockefeller Circle,Slavkov u Brna,,684 01,Czech Republic,2,Parkway
51 Kropf Parkway,Lebedyn,,,Ukraine,139,Hill
82487 Clyde Gallagher Junction,Aylmer,Ontario,N5H,Canada,35757,Trail
8 Blue Bill Park Drive,Heshui,,,China,03,Center
222 Butterfield Circle,Yingmaili,,,China,80455,Circle
178 Iowa Hill,Mbongawani,,,Indonesia,9,Parkway
04 Mesta Circle,Krzemienica,,37-127,Poland,0,Parkway
58371 Vidon Point,Chipoka,,,Malawi,468,Hill
6064 Nevada Trail,Dubu,,,China,4,Junction
18142 Northview Plaza,Damanhūr,,,Egypt,6,Place
29 Cottonwood Drive,Youhua,,,China,59,Center
537 Memorial Street,Varaždin,,42000,Croatia,72,Parkway
3 Washington Trail,Narukan,,,Indonesia,09,Circle
6004 Mesta Hill,Baiyun,,,China,66097,Lane
32929 Colorado Circle,Ban Fang,,40270,Thailand,7475,Way
17549 Lyons Center,Golovinskiy,,141707,Russia,0480,Road
75 Fairview Center,Nirgua,,,Venezuela,52143,Plaza
07692 Vernon Avenue,Nýdek,,739 95,Czech Republic,867,Park
82 Bartillon Hill,Komi,,,Indonesia,36,Pass
86246 Dryden Center,Dimbokro,,,Ivory Coast,7,Place
57 Sullivan Way,Shouzhan,,,China,08614,Junction
5019 Bultman Center,Banjar Sebual,,,Indonesia,5,Park
93 Shopko Way,Apitong,,4405,Philippines,7,Junction
4632 Hanson Road,Luodong,,,China,6,Road
96823 Ohio Court,Clervaux,,L-9765,Luxembourg,6809,Alley
776 Michigan Alley,Titao,,,Burkina Faso,2610,Place
692 Burning Wood Junction,Tarbes,Midi-Pyrénées,65004 CEDEX,France,7,Way
5519 Havey Hill,Semarang,,,Indonesia,94,Park
09 Pearson Terrace,Sarirejo Satu,,,Indonesia,00,Terrace
6136 Ludington Drive,Lecong,,,China,06906,Circle
236 Portage Street,San Pedro Sacatepéquez,,01059,Guatemala,025,Drive
710 Scoville Drive,Xindian,,,China,056,Court
17 Hallows Pass,Huangzhuang,,,China,1655,Parkway
7423 Graceland Park,Chiara,,,Peru,7,Pass
88 La Follette Point,Debrecen,Hajdú-Bihar,4014,Hungary,8868,Circle
14738 Summerview Parkway,Thị Trấn Yên Thịnh,,,Vietnam,2567,Circle
59597 Heffernan Place,Afántou,,,Greece,762,Terrace
045 Dunning Road,Antaparco,,,Peru,5365,Point
8 Lotheville Plaza,Druzhba,,,Ukraine,3582,Court
3 Tony Place,Jungkat Selatan,,,Indonesia,3271,Junction
9 Butternut Road,Ospina,,523047,Colombia,9,Crossing
319 Scofield Place,San Antonio de Los Altos,,,Venezuela,7878,Pass
5 Oak Avenue,Berlin,Berlin,14109,Germany,0367,Junction
05 Summit Crossing,Pestovo,,174510,Russia,151,Terrace
6 Jana Trail,Pamoyanan,,,Indonesia,139,Parkway
11038 Luster Way,Örebro,Örebro,701 43,Sweden,37691,Alley
486 Bowman Road,Mouquim,Braga,4770-354,Portugal,636,Pass
5868 Golf View Alley,Ramanavichy,,,Belarus,130,Center
49 Delladonna Plaza,Concepción,,,Paraguay,6,Crossing
29536 Stephen Park,Kafr Baţnā,,,Syria,0,Park
5752 Aberg Center,Bonneville,Rhône-Alpes,74134 CEDEX,France,2527,Parkway
09690 Bultman Circle,Plaju,,,Indonesia,3324,Terrace
6671 Kedzie Terrace,Karmaskaly,,453150,Russia,34927,Point
905 Valley Edge Hill,Hingatungan,,2500,Philippines,14287,Hill
68557 Coolidge Lane,Azara,,3351,Argentina,2015,Drive
58616 Mcguire Road,Sakhipur,,1950,Bangladesh,9106,Road
00 Spaight Terrace,Sendangwaru,,,Indonesia,857,Junction
92 Merry Pass,Kobuleti,,,Georgia,3,Terrace
19484 Center Road,Shabo,,,Ukraine,5046,Alley
11853 Scofield Hill,Issy-les-Moulineaux,Île-de-France,92782 CEDEX 9,France,95703,Hill
77463 Forster Alley,Tangxi,,,China,82591,Center
3104 Boyd Junction,Mangochi,,,Malawi,72040,Junction
21 Fairview Junction,Linshui,,,China,12,Plaza
1 Utah Junction,Sadkowice,,96-206,Poland,06283,Center
095 Farragut Road,Caridade,Évora,7200-224,Portugal,8,Plaza
2026 Springs Park,Sighnaghi,,,Georgia,11320,Parkway
53 Dawn Way,Plateliai,,90036,Lithuania,57,Plaza
5 Logan Plaza,Blois,Centre,41942 CEDEX 9,France,9,Drive
0 Monterey Center,El Aguacate,Guerrero,40687,Mexico,37617,Center
5 Fordem Center,Phoenix,Arizona,85053,United States,99002,Lane
01198 Golf Way,Novosel’ye,,,Belarus,28097,Park
66713 Corscot Pass,Banjar Batanpoh,,,Indonesia,292,Point
8 Springview Hill,Buriwutung,,,Indonesia,637,Way
75998 Brown Drive,Hengli,,,China,4,Avenue
97 Rigney Trail,Pasarnangka,,,Indonesia,97228,Hill
8512 Clarendon Trail,Černovice,,618 00,Czech Republic,72783,Avenue
762 Scofield Park,Mekarsari,,,Indonesia,92,Hill
1 Londonderry Way,Qijiang,,,China,139,Parkway
69216 Moose Hill,Неготино,,1236,Macedonia,1176,Crossing
262 Mockingbird Street,Kozova,,,Ukraine,9,Hill
98 Blue Bill Park Hill,Placencia,,,Belize,5095,Crossing
8 Randy Way,Embu Guaçu,,96910-000,Brazil,2383,Pass
8894 Monica Trail,Comalapa,,04004,Guatemala,93,Center
5 Corry Lane,Cana Chapetón,,11004,Dominican Republic,7,Lane
237 Marquette Point,Canavieiras,,45860-000,Brazil,07,Alley
58 Ohio Lane,Granadero Baigorria,,2152,Argentina,647,Road
95 Hoffman Court,Kachar,,,Kazakhstan,163,Avenue
82 Birchwood Hill,Chisong,,,China,81317,Lane
595 Shoshone Place,Novosineglazovskiy,,456505,Russia,98,Parkway
981 Miller Court,Västervik,Kalmar,593 30,Sweden,7360,Park
2 Surrey Plaza,Khonj,,,Iran,1,Park
2 Russell Park,Al Majāridah,,,Saudi Arabia,46,Road
39182 Esch Plaza,Černelavci,,9265,Slovenia,9650,Place
7 International Junction,Guanzhou,,,China,264,Parkway
34 Beilfuss Road,Aix-en-Provence,Provence-Alpes-Côte d'Azur,13792 CEDEX 3,France,50744,Hill
35317 Warbler Road,Cabano,Québec,T9H,Canada,59779,Plaza
942 Bunting Street,Stepnica,,72-112,Poland,17,Way
366 Eliot Way,Jiaoxiyakou,,,China,7647,Hill
33021 Sunbrook Avenue,‘Ibrī,,,Oman,9673,Parkway
037 Memorial Drive,Duanjia,,,China,862,Point
4 Golden Leaf Crossing,Krasnoshchekovo,,658343,Russia,27730,Junction
293 Mallory Junction,Parakanbeusi,,,Indonesia,7,Avenue
8 Tony Drive,Erenhot,,,China,52922,Lane
5880 Lien Center,Dourbali,,,Chad,35143,Park
493 Oriole Pass,Hengshan,,,China,34208,Pass
562 Fieldstone Terrace,Masalovka,,347837,Russia,70179,Pass
435 Packers Way,Tatarbunary,,,Ukraine,2891,Circle
3478 Del Mar Avenue,Otra Banda,,11805,Dominican Republic,68498,Street
047 Vernon Hill,Wunat,,,Indonesia,7,Plaza
34 Sauthoff Alley,Nishishinminato,,934-0099,Japan,3,Court
6083 Stoughton Trail,Hengliang,,,China,027,Circle
79 Kropf Circle,Kendung Timur,,,Indonesia,150,Plaza
23 North Drive,Tegalwero,,,Indonesia,0341,Road
7 Tennessee Avenue,Karangharjo,,,Indonesia,6,Street
6665 Schurz Junction,Grazhdanka,,692327,Russia,510,Alley
64 Schurz Trail,Udanin,,55-340,Poland,84595,Road
6848 Marcy Way,Almere Stad,Provincie Flevoland,1304,Netherlands,5,Junction
844 Kinsman Parkway,Welchman Hall,,,Barbados,13,Terrace
58191 Darwin Place,Sobreiro,Viana do Castelo,4940-374,Portugal,118,Court
72 Jenna Way,Chrast,,538 51,Czech Republic,851,Point
5 4th Hill,Zbiroh,,338 08,Czech Republic,135,Circle
2077 Raven Plaza,Warung Wetan,,,Indonesia,2,Alley
76 Saint Paul Place,Mranggen,,,Indonesia,599,Parkway
94 Eliot Lane,Ozorków,,95-036,Poland,12,Junction
262 Warrior Street,Eisen,,,South Korea,13210,Circle
8 Montana Way,Kawasaki,,999-3145,Japan,0,Road
7 Warrior Way,Bāmyān,,,Afghanistan,5584,Road
365 Kropf Trail,Chābahār,,,Iran,71,Avenue
10641 Pine View Avenue,Makueni,,,Kenya,2,Center
29 Northwestern Parkway,Svetlograd,,356537,Russia,56,Park
69216 Nancy Road,Carpentras,Provence-Alpes-Côte d'Azur,84204 CEDEX,France,3898,Drive
99 Myrtle Way,Rönninge,Stockholm,144 40,Sweden,1520,Crossing
27634 Rockefeller Plaza,Alcantara,,5509,Philippines,2,Court
69514 Doe Crossing Way,Shatian,,,China,88,Way
7129 Sycamore Parkway,Obanazawa,,999-4221,Japan,089,Terrace
078 Fremont Plaza,Lazdijai,,67001,Lithuania,046,Parkway
3 Crescent Oaks Street,Rushankou,,,China,807,Avenue
062 Fuller Center,Beicheng,,,China,89583,Pass
59212 Susan Plaza,Chengnan,,,China,78649,Lane
22 Portage Plaza,Omaha,Nebraska,68144,United States,26104,Way
755 Orin Way,Bergen op Zoom,Provincie Noord-Brabant,4609,Netherlands,3,Park
527 Trailsway Pass,Idhnā,,,Palestinian Territory,43,Lane
12 Knutson Lane,Lucé,Centre,28114 CEDEX,France,2,Lane
50029 Birchwood Alley,Ash Shuhadā’,,,Palestinian Territory,9,Road
0 Continental Center,Guangning,,,China,50,Parkway
72630 Towne Trail,Paulínia,,13140-000,Brazil,41,Plaza
5249 Village Green Avenue,Izborsk,,181518,Russia,1097,Park
70 Dryden Lane,Santa Maria Oliveira,Braga,4765-322,Portugal,79,Place
7 Mcguire Court,Évlalo,,,Greece,247,Parkway
02997 Village Place,Boca de Parita,,,Panama,83,Junction
430 Veith Point,San Rafael Abajo,,10311,Costa Rica,114,Plaza
6494 Linden Lane,Богданци,,1488,Macedonia,7449,Alley
6101 Del Mar Park,Avdzaga,,,Mongolia,63666,Drive
926 Rockefeller Terrace,Viña del Mar,,,Chile,202,Crossing
6 Donald Crossing,Quba,,,Azerbaijan,8775,Drive
38594 Crownhardt Way,Girang,,,Indonesia,31826,Point
251 Scoville Road,Vitry-sur-Seine,Île-de-France,94785 CEDEX,France,7,Center
42747 Dorton Park,Shang Boingor,,,China,443,Hill
5 Memorial Terrace,Chernelytsya,,,Ukraine,46529,Road
245 Bonner Center,Beiqijia,,,China,09,Drive
4 Arkansas Court,Síkinos,,,Greece,99,Avenue
68063 Badeau Parkway,Tonoas Municipal Building,,,Micronesia,933,Point
95 Center Pass,Dundbürd,,,Mongolia,61569,Hill
5 Shasta Place,Tiantai,,,China,03,Place
856 3rd Point,Hedian,,,China,2097,Drive
8081 Farmco Junction,Milíkov,,739 81,Czech Republic,0914,Plaza
18 Trailsway Pass,Buenavista,,8601,Philippines,6441,Pass
8980 Chinook Trail,San Clemente,,,Peru,79,Court
67 Tony Parkway,Mnich,,43-523,Poland,72475,Way
63 Thompson Pass,Orlovskiy,,347513,Russia,3339,Pass
214 Texas Way,Lüfeng,,,China,79,Plaza
9361 Burning Wood Plaza,Patnongon,,5702,Philippines,0,Street
2501 Lakeland Park,Karanggeneng,,,Indonesia,53990,Park
67 Elka Crossing,Beicang,,,China,1,Parkway
07749 Bartillon Road,Karara,,,Indonesia,58654,Junction
260 Eagle Crest Pass,Murom,,602257,Russia,9,Trail
93 Upham Junction,Notsé,,,Togo,80,Circle
6 Cherokee Terrace,Tromsø,Troms,9259,Norway,652,Alley
595 Melrose Way,Golmud,,,China,40,Alley
87000 Valley Edge Crossing,Beauharnois,Québec,J6N,Canada,4,Point
4 Mayer Court,Balas,,2007,Philippines,1084,Pass
0828 Express Junction,Candelaria,,111711,Colombia,5962,Way
4253 Pankratz Court,Érd,Pest,2035,Hungary,09180,Point
6555 Debs Lane,Klaeng,,21110,Thailand,218,Park
8084 Darwin Lane,Waimangura,,,Indonesia,4,Parkway
30 Milwaukee Center,Lagnieu,Rhône-Alpes,01154 CEDEX,France,2,Parkway
1 Springview Parkway,Cusapín,,,Panama,23,Park
8236 Brentwood Center,Hongshi,,,China,41,Junction
810 Amoth Trail,Studzienice,,77-143,Poland,875,Street
3179 Dunning Point,Jampang Kulon,,,Indonesia,5,Road
8 Vernon Center,Canga’an,,,Indonesia,3272,Pass
1787 Melody Road,Kula,,3818,Bulgaria,57,Parkway
7716 Ronald Regan Circle,Xingnong,,,China,826,Way
67 Independence Plaza,Sannikovo,,658059,Russia,1,Terrace
5449 Express Place,Kebili,,,Tunisia,332,Pass
66 Eagle Crest Place,Isheyevka,,433310,Russia,0,Avenue
40 Knutson Drive,Sukorambi,,,Indonesia,62221,Lane
7 Bunker Hill Court,Zhaotong,,,China,63,Parkway
4535 Florence Drive,Pondokkaha Kelod,,,Indonesia,56551,Park
9339 Heffernan Plaza,Makbon,,,Indonesia,843,Point
15 David Circle,Yangmingbu,,,China,05530,Terrace
5 Rowland Place,Kuanfatu,,,Indonesia,7,Street
5695 School Hill,Pilzno,,39-220,Poland,05842,Drive
2 Ramsey Junction,Detroit,Michigan,48211,United States,5982,Center
342 Loomis Drive,San Isidro,,,Peru,04,Hill
3 Basil Crossing,Mangli,,,Indonesia,71221,Park
7879 Anhalt Street,Orichi,,613603,Russia,31971,Hill
19 Packers Trail,Qianchuan,,,China,904,Alley
95 Loeprich Plaza,Beiwucha,,,China,614,Hill
901 Northridge Road,Borzoy,,366406,Russia,950,Crossing
7 Hintze Road,Weifen,,,China,68,Lane
50 Mosinee Park,Tamnag,,9803,Philippines,7,Hill
36127 Crowley Pass,Sruki,,,Indonesia,76,Circle
91925 Crescent Oaks Trail,Karlivka,,,Ukraine,13,Avenue
99562 Dennis Court,Koceljeva,,,Serbia,137,Hill
9800 Huxley Street,Banjar Mambalkajanan,,,Indonesia,1150,Terrace
243 Ludington Avenue,Tuqiao,,,China,9,Street
79 Lighthouse Bay Hill,Kidričevo,,2325,Slovenia,4,Hill
7 Johnson Plaza,Opatówek,,62-860,Poland,4,Lane
7 David Pass,Noling,,2731,Philippines,69741,Avenue
754 Elka Court,Skelleftehamn,Västerbotten,932 33,Sweden,6434,Center
5932 Center Avenue,Närpes,,64210,Finland,94,Alley
888 Knutson Court,Vidyayevo,,184389,Russia,384,Drive
2054 Hagan Junction,Kanáli,,,Greece,9925,Circle
5 Rigney Street,Lluidas Vale,,,Jamaica,11910,Alley
7634 Northwestern Street,Cercal,Santarém,2490-105,Portugal,6009,Alley
3018 Maywood Circle,Kuishan,,,China,09,Hill
91 Springview Circle,Jaworze,,43-384,Poland,7,Crossing
78 Northwestern Pass,Sishui,,,China,3,Court
825 Waywood Circle,Paris 12,Île-de-France,75609 CEDEX 12,France,4,Circle
24077 Armistice Terrace,Zhankhoteko,,361524,Russia,68,Park
57 Sunbrook Way,Vellinge,Skåne,235 93,Sweden,692,Plaza
42 Eastlawn Parkway,Kurów,,24-170,Poland,612,Terrace
4 Hudson Hill,Zibu,,,China,6454,Drive
7 Mallory Trail,Changbai,,,China,7576,Road
3037 Golf View Drive,Seso,,,Indonesia,5754,Park
22 Tennessee Circle,Zhenxi,,,China,5,Terrace
58 Vermont Crossing,Ramos West,,3309,Philippines,40,Drive
1 Gulseth Junction,Demba,,,Democratic Republic of the Congo,21019,Street
5 Schlimgen Circle,Luyang,,,China,428,Way
061 Brickson Park Park,Xishaping,,,China,224,Way
93609 Transport Point,Barbalha,,63180-000,Brazil,1,Circle
3 Straubel Plaza,Blaye,Aquitaine,33394 CEDEX,France,33706,Place
4 Carpenter Center,Helong,,,China,13,Avenue
70 Dexter Circle,Nakama,,904-0401,Japan,880,Hill
233 Sundown Avenue,Castelões,Braga,4770-834,Portugal,48,Center
9 Thackeray Crossing,Badrah,,,Mongolia,4,Parkway
5 Lakewood Gardens Crossing,Kamphaeng Phet,,44190,Thailand,9161,Drive
88608 Memorial Parkway,Barra de São Francisco,,29800-000,Brazil,376,Alley
4 Melrose Way,Mirebalais,,,Haiti,1,Circle
0 Lighthouse Bay Drive,Cut-cut Primero,,3119,Philippines,33,Alley
03647 Jay Trail,Puamata,,,Indonesia,807,Center
475 Lindbergh Alley,Puconci,,9201,Slovenia,8696,Terrace
56 Bonner Alley,Nueve de Julio,,3606,Argentina,9647,Terrace
2 Division Avenue,Chokwé,,,Mozambique,9123,Place
63 Scoville Way,Pindangan Centro,,8603,Philippines,46,Lane
90998 Mariners Cove Parkway,Orzech,,41-922,Poland,8,Avenue
889 Esker Junction,Johanneshov,Stockholm,121 12,Sweden,164,Junction
16821 Superior Avenue,Ouésso,,,Republic of the Congo,3,Way
3 Hollow Ridge Alley,Stockholm,Stockholm,131 88,Sweden,2,Court
9947 Loftsgordon Plaza,Dibba Al-Hisn,,,United Arab Emirates,76310,Way
04 Sloan Street,Sakaraha,,,Madagascar,86,Road
30 Tomscot Alley,Jargalant,,,Mongolia,3,Junction
49 Evergreen Terrace,Langsa,,,Indonesia,49,Street
7 Lawn Way,Hultsfred,Kalmar,577 32,Sweden,7,Center
552 Sachs Road,Pasirhuni,,,Indonesia,87722,Plaza
89 Anzinger Alley,Xinmen,,,China,6064,Court
36 Oneill Center,Laolong,,,China,83967,Alley
472 Hermina Place,Karanggeneng,,,Indonesia,0573,Pass
9908 North Terrace,Makedonski Brod,,6530,Macedonia,99530,Circle
18 East Center,Cisompet,,,Indonesia,763,Junction
68 Cottonwood Plaza,Shabel’skoye,,353643,Russia,16220,Parkway
9 Del Mar Parkway,Magallanes,,8604,Philippines,76667,Street
89502 Prairieview Lane,Keluke,,,China,87342,Street
105 Warbler Drive,Namwala,,,Zambia,08753,Terrace
5 Sunfield Alley,Al Ḩarajah,,,Yemen,7,Road
8851 Warbler Hill,Châtellerault,Poitou-Charentes,86104 CEDEX,France,71261,Point
7904 Barnett Plaza,Embarcación,,4550,Argentina,36394,Plaza
8 Orin Place,Baltiysk,,238528,Russia,9,Lane
01 Loftsgordon Plaza,Trai Ngau,,,Vietnam,245,Center
6737 Amoth Drive,Ratoath,,A85,Ireland,97,Drive
7028 Elmside Alley,Leones,,2594,Argentina,29,Circle
2350 Utah Circle,Borok,,152743,Russia,6644,Plaza
28954 Dayton Street,Pasirmanggu,,,Indonesia,1,Circle
934 Morning Hill,Mahébourg,,,Mauritius,421,Circle
87 Judy Hill,Santa Ana,,3514,Philippines,88875,Lane
85332 Oak Plaza,Stockholm,Stockholm,111 46,Sweden,96,Parkway
187 Crest Line Trail,Karma,,,Belarus,31766,Pass
16 Sunnyside Circle,Vom,,,Nigeria,9,Drive
4 Logan Center,Songyuan,,,China,68897,Lane
77 Kipling Circle,Petrovskoye,,152130,Russia,191,Center
23 Bluestem Terrace,Pedrulheira,Leiria,2430-328,Portugal,126,Circle
75397 Tony Plaza,Kloangpopot,,,Indonesia,9187,Circle
62 Golf Terrace,Okuta,,,Nigeria,4637,Point
53 Park Meadow Avenue,Randuboto,,,Indonesia,7,Pass
41 Jenifer Center,Örebro,Örebro,701 48,Sweden,112,Road
905 Debs Alley,Halteu,,,Indonesia,3,Place
3270 Nobel Road,Polen,,,Indonesia,633,Junction
7 Butternut Street,Ayorou,,,Niger,9,Court
29 Mcbride Plaza,Chujiang,,,China,6450,Plaza
850 Corben Lane,Birni N Konni,,,Niger,6,Terrace
354 Randy Place,Kahabe,,,Indonesia,4050,Parkway
20 Northview Park,Linköping,Östergötland,586 63,Sweden,04208,Court
741 Dryden Pass,Hongch’ŏn,,,South Korea,461,Road
34019 Northwestern Point,Brea Pozo,,4313,Argentina,64,Avenue
5287 Waywood Court,Hou’an,,,China,04,Circle
2558 Dawn Avenue,Skolkovo,,249028,Russia,72,Circle
0735 Becker Court,Potoni,,,Peru,8,Junction
288 Lyons Hill,Futtsu,,293-0024,Japan,129,Junction
98975 Truax Center,Rodez,Midi-Pyrénées,12020 CEDEX 9,France,13133,Drive
1803 Golf Course Park,San Bartolomé Milpas Altas,,03009,Guatemala,4065,Drive
895 Anzinger Park,Benito Juarez,Oaxaca,70760,Mexico,3,Hill
338 Drewry Avenue,Tulsa,Oklahoma,74103,United States,5795,Trail
45490 Monica Park,Leribe,,,Lesotho,87,Terrace
21 Florence Point,Houmt Souk,,,Tunisia,2,Alley
02 Boyd Way,Yangchun,,,China,9,Crossing
71257 Blackbird Alley,Sumberjeruk,,,Indonesia,53925,Lane
58437 Kings Park,Aracaju,,49000-000,Brazil,6014,Point
8476 Monica Street,Purwodadi,,,Indonesia,279,Park
909 Bobwhite Pass,Oyam,,,Uganda,1,Point
7 Upham Place,Calmar,Alberta,S0G,Canada,8517,Road
2 Columbus Road,Huadian,,,China,4276,Avenue
84059 Browning Park,Xigou,,,China,8886,Way
595 Morningstar Hill,Januária,,39480-000,Brazil,46,Crossing
497 Arizona Center,Lalauigan,,2900,Philippines,9834,Place
6 Karstens Park,Bonneuil-sur-Marne,Île-de-France,94865 CEDEX,France,411,Center
61 Crowley Center,Lixu,,,China,083,Circle
693 Boyd Parkway,San Isidro,Coahuila De Zaragoza,27990,Mexico,79,Street
88 Elmside Lane,Hengjian,,,China,721,Trail
5 Heath Avenue,Douentza,,,Mali,03,Crossing
142 Charing Cross Street,Zhongcun,,,China,8889,Crossing
72623 Brickson Park Parkway,Kamenica,,,Serbia,7,Trail
0 Waubesa Street,Banag,,4234,Philippines,87,Trail
93742 7th Place,Denver,Colorado,80262,United States,50,Trail
10 Ilene Avenue,Jiekeng,,,China,879,Point
54 Helena Way,Udachny,,678188,Russia,5,Junction
24 Badeau Plaza,Orikhiv,,,Ukraine,965,Point
398 Lighthouse Bay Hill,Turochak,,649140,Russia,25,Trail
4961 Dwight Circle,Grigoropolisskaya,,356020,Russia,4919,Junction
055 Graedel Drive,Irbid,,,Jordan,10,Park
540 Muir Terrace,Proboštov,,403 27,Czech Republic,6904,Point
7966 Florence Parkway,Videira,,89560-000,Brazil,27,Circle
42098 Cherokee Hill,Pytalovo,,181410,Russia,62433,Drive
21 Bunting Road,Banjar Petak,,,Indonesia,6577,Court
234 Haas Street,Färjestaden,Kalmar,386 35,Sweden,41456,Trail
9680 Prairieview Center,Kisanga,,,Tanzania,964,Center
9 Cascade Trail,Trzcińsko Zdrój,,74-510,Poland,279,Terrace
80268 Esker Pass,Sabandia,,,Peru,0984,Place
2551 Southridge Parkway,Nangka,,1808,Philippines,2,Lane
89765 Mcguire Street,Andamui,,,Indonesia,66,Park
230 Upham Avenue,Goroka,,,Papua New Guinea,373,Pass
04 Sutteridge Park,Santa Lucia,,2712,Philippines,75661,Plaza
0915 American Ash Park,Mariquita,,732028,Colombia,77,Circle
85131 Eagle Crest Center,Thị Trấn Quế,,,Vietnam,3,Hill
8 Waubesa Center,Manorhamilton,,H16,Ireland,32,Street
95 Wayridge Junction,Lab,,,China,41354,Lane
96 Riverside Lane,Ash Sharyah,,,Yemen,77281,Terrace
44 Superior Park,Sumeng,,,China,531,Terrace
2 4th Court,Shihuang,,,China,60862,Way
8204 Nova Point,Kijini,,,Tanzania,2304,Road
0348 Pine View Way,Louta,,,China,8536,Drive
18813 Farmco Circle,Tuchlovice,,273 02,Czech Republic,044,Alley
01 Garrison Junction,Capacho Nuevo,,,Venezuela,64796,Street
8 Debs Crossing,Vetlanda,Jönköping,574 91,Sweden,2,Circle
13170 Gerald Avenue,Xinglongquan,,,China,6,Pass
554 Gale Lane,Gjøvik,Oppland,2821,Norway,56,Terrace
1 Dorton Crossing,Kuršėnai,,81001,Lithuania,81213,Lane
137 Muir Junction,Marjayoûn,,,Lebanon,10064,Parkway
53666 Orin Parkway,Vicente Guerrero,Veracruz Llave,92440,Mexico,0223,Court
8 Summer Ridge Center,Cubatão,,11500-000,Brazil,2035,Circle
67 Reinke Plaza,Nalbandyan,,,Armenia,3,Park
3 Spenser Junction,Kępice,,77-230,Poland,49,Junction
35523 Golf View Parkway,Bolinao,,2406,Philippines,3,Pass
91 Oneill Terrace,Longqiao,,,China,4899,Point
2970 1st Trail,Ronneby,Blekinge,372 34,Sweden,8,Center
575 Portage Alley,18 de Marzo,Veracruz Llave,93294,Mexico,0074,Street
1 Artisan Avenue,Oliveira de Frades,Viseu,3680-077,Portugal,929,Lane
42730 Red Cloud Court,Quelimane,,,Mozambique,023,Hill
40717 Arizona Hill,Kaliro,,,Uganda,926,Lane
721 Brickson Park Alley,Sankanan,,8701,Philippines,49681,Pass
19 Northwestern Circle,Loma Bonita,Guerrero,41240,Mexico,53,Lane
1 Onsgard Crossing,Ngora,,,Uganda,79,Place
37202 Larry Place,Phủ Thông,,,Vietnam,46697,Terrace
86326 Mesta Circle,Bojong,,,Indonesia,16,Alley
9 Rigney Trail,Xiongguan,,,China,78,Road
0 Dryden Alley,Sharīfābād,,,Iran,0,Avenue
8601 Hazelcrest Lane,Naran Bulag,,,China,197,Way
14 Mallard Way,Jammā‘īn,,,Palestinian Territory,0,Junction
7123 Blue Bill Park Drive,Huazhai,,,China,383,Center
2903 Forster Circle,Myingyan,,,Myanmar,59094,Park
5 Quincy Road,Baltiysk,,238528,Russia,054,Drive
17571 Ronald Regan Alley,Suileng,,,China,361,Pass
331 Butterfield Crossing,Bobrovka,,457134,Russia,70884,Avenue
3 Village Green Lane,Ngrayun,,,Indonesia,88262,Place
83482 Mariners Cove Terrace,Makoko,,,Nigeria,3,Way
21 Longview Way,Taipa,,0420,New Zealand,75413,Crossing
3 Calypso Drive,Manis Mekarwangi,,,Indonesia,506,Lane
95 Tennessee Street,Şabāḩ as Sālim,,,Kuwait,5727,Road
5743 Montana Street,Zagoryanskiy,,141143,Russia,78910,Plaza
7545 Everett Lane,Topory,,,Ukraine,6,Place
1999 Linden Trail,Verkhniye Kigi,,452500,Russia,9460,Street
5 Lillian Circle,Al Baqāliţah,,,Tunisia,61674,Plaza
5322 Leroy Pass,La Paz Centro,,,Nicaragua,33,Point
1229 Hudson Point,Kankan,,,Guinea,76,Court
0 Waywood Lane,Noisy-le-Grand,Île-de-France,93883 CEDEX,France,590,Lane
496 Merrick Point,Qal‘at al Andalus,,,Tunisia,0591,Road
772 Scoville Place,Bonthe,,,Sierra Leone,592,Point
665 Boyd Pass,Redange-sur-Attert,,L-8511,Luxembourg,9974,Hill
99 Vera Lane,Andalan,,2305,Philippines,15,Parkway
335 Gale Point,Chum Phae,,40130,Thailand,27604,Lane
82112 Corscot Park,Oranjestad,,,"Bonaire, Saint Eustatius and Saba ",760,Road
7546 Tennyson Crossing,Iwakura,,999-0436,Japan,17716,Court
84949 Old Gate Court,Milwaukee,Wisconsin,53285,United States,2,Junction
12 Del Mar Terrace,Los Angeles,California,90005,United States,291,Circle
3 Randy Alley,Sadská,,289 12,Czech Republic,0849,Road
35145 Weeping Birch Crossing,Rana,Lisboa,2775-389,Portugal,27,Parkway
8319 Linden Place,Biris Daja,,,Indonesia,62,Way
933 Hanson Road,Sunzhuang,,,China,6560,Alley
460 Melvin Crossing,Otok,,40323,Croatia,49,Plaza
0 Surrey Junction,Uddevalla,Västra Götaland,451 32,Sweden,11337,Plaza
6156 Morrow Circle,Majan,,,Indonesia,87295,Street
53487 Kenwood Junction,Ketanggi,,,Indonesia,00,Alley
57436 Petterle Alley,Mocun,,,China,43,Street
60 Thackeray Center,Junshan,,,China,19,Trail
42171 Thierer Crossing,Espinal,,733529,Colombia,5093,Lane
769 Lien Court,Hlyboka,,,Ukraine,1383,Alley
1592 Russell Alley,Tobol,,,Kazakhstan,0,Crossing
3 Gale Lane,Rengasdengklok,,,Indonesia,0012,Trail
80339 Southridge Lane,Independencia,Mexico,56617,Mexico,70511,Hill
26 Goodland Street,Atawutung,,,Indonesia,7307,Way
8710 Oriole Alley,Bouaké,,,Ivory Coast,4767,Trail
00 Schiller Hill,Andrushivka,,,Ukraine,5911,Court
64 Dixon Center,Jasionów,,36-212,Poland,619,Drive
11 Melrose Court,Krasnokamensk,,662955,Russia,0699,Pass
385 Eagle Crest Alley,Anuling,,4501,Philippines,54,Lane
14718 Northland Street,Stockholm,Stockholm,106 32,Sweden,92,Court
43973 Clove Point,Acopiara,,63560-000,Brazil,46646,Circle
1 Glacier Hill Drive,Shenzhong,,,China,48,Plaza
25224 Starling Junction,Ābdānān,,,Iran,16253,Junction
95 Kennedy Street,Huaquirca,,,Peru,78112,Parkway
082 Sugar Lane,Kambove,,,Democratic Republic of the Congo,02765,Point
98 Steensland Drive,Awka,,,Nigeria,9,Trail
32879 Morning Circle,Pacajus,,62870-000,Brazil,56013,Way
29052 Dryden Center,Jām Sāhib,,76141,Pakistan,55,Lane
5 Graceland Park,Briceni,,MD-5114,Moldova,8,Hill
15 Shasta Court,Paarl,,7681,South Africa,867,Avenue
10711 Hanover Avenue,Tanguiéta,,,Benin,803,Road
97336 Lukken Center,Xiaomian,,,China,34,Point
2408 Burrows Drive,Denton,Texas,76205,United States,18,Hill
352 Aberg Place,Lokokrangan,,,Indonesia,68,Crossing
962 Huxley Pass,Dongshan,,,China,83,Pass
11609 Golden Leaf Avenue,Fovissste,Chihuahua,33980,Mexico,51624,Pass
26 American Ash Trail,Mpraeso,,,Ghana,9,Street
74 Anzinger Pass,Magugu,,,Tanzania,37,Court
95 Arapahoe Plaza,Nanganumba,,,Indonesia,45,Drive
679 Oak Valley Avenue,Évreux,Haute-Normandie,27929 CEDEX 9,France,8307,Point
17757 Florence Way,Kiboga,,,Uganda,19480,Crossing
1 Everett Park,Magisterial,Zacatecas,99750,Mexico,9,Circle
52073 Monica Circle,Pajić Polje,,,Bosnia and Herzegovina,6182,Park
30 Ridgeview Way,Zouila,,,Tunisia,58,Hill
815 Graceland Alley,Eskilstuna,Södermanland,632 32,Sweden,70967,Crossing
454 Village Place,Meziměstí,,549 81,Czech Republic,0671,Way
724 Valley Edge Circle,Pilot Butte,Saskatchewan,N8M,Canada,02107,Terrace
0227 Crest Line Terrace,Krechevitsy,,346020,Russia,96,Circle
6 Bartelt Way,Kangaslampi,,79480,Finland,1376,Lane
3569 Bultman Trail,Touying,,,China,1,Crossing
087 Calypso Way,Khiv,,368692,Russia,011,Junction
44664 Vahlen Hill,Armamar,Viseu,5110-125,Portugal,1590,Parkway
22 High Crossing Park,Obiaruku Quarters,,,Nigeria,51221,Court
00625 Canary Point,Forécariah,,,Guinea,05,Point
45 3rd Pass,Santo Niño,,6711,Philippines,96,Hill
4598 Independence Court,El Bolsón,,8430,Argentina,8846,Center
9 John Wall Crossing,Nikol’sk,,630025,Russia,1,Road
28140 Morrow Alley,Baitang,,,China,8602,Plaza
75 Jenna Court,Dzüünkharaa,,,Mongolia,3,Point
88765 Bobwhite Park,Niebocko,,36-207,Poland,395,Lane
2123 Hauk Drive,Shāhdādkot,,70211,Pakistan,6,Avenue
1 Westport Park,Ciulu,,,Indonesia,0,Park
58934 Arapahoe Junction,El Paso,Texas,79940,United States,0,Trail
306 Bartillon Place,Borodinskiy,,188961,Russia,1131,Hill
28 Arrowood Center,Bicos,,3126,Philippines,5273,Pass
8156 Mosinee Trail,Progreso,Chihuahua,31210,Mexico,3,Court
4 Autumn Leaf Court,Labrador City,Newfoundland and Labrador,A2V,Canada,28506,Plaza
0156 Meadow Vale Court,Yangkou,,,China,40,Plaza
221 Schiller Parkway,Guanghai,,,China,1,Hill
7818 Crownhardt Court,Wuluo,,,China,77,Junction
6 Petterle Place,Ouahigouya,,,Burkina Faso,597,Road
98630 Mariners Cove Plaza,Mistrató,,664028,Colombia,966,Center
7 South Trail,Baro,,2445,Philippines,316,Park
1930 Prairie Rose Pass,Leeuwarden,Provincie Friesland,8904,Netherlands,00970,Road
70185 Blaine Road,Oslo,Oslo,1257,Norway,19,Park
43385 Raven Park,Tsuruga,,957-0355,Japan,90113,Court
4 Mesta Terrace,Kekeri,,,Indonesia,6,Way
34847 Ronald Regan Alley,Selkirk,Manitoba,R1A,Canada,58,Point
2 Hovde Way,Margorejo,,,Indonesia,5383,Pass
695 Amoth Hill,Banshu,,,China,3,Point
10174 Maryland Crossing,Chatan,,904-0116,Japan,6354,Hill
132 Lawn Drive,Gaocang,,,China,21737,Circle
1245 Fordem Trail,Salzburg,Salzburg,5071,Austria,45,Pass
7487 Novick Street,Baochang,,,China,1,Pass
62 Sunnyside Place,Mache,,,Peru,72,Trail
059 Blaine Avenue,San Miguel,,10302,Costa Rica,8,Crossing
0 Hoffman Point,Quime,,,Bolivia,44640,Trail
47523 Kingsford Circle,San Vicente,,6419,Philippines,3257,Hill
26 Crest Line Circle,Oneop,,,Micronesia,1,Terrace
173 Stoughton Circle,Donggong,,,China,944,Plaza
46 Moulton Plaza,Aguas del Padre,,,Honduras,40207,Junction
20764 Clyde Gallagher Way,Tōno,,326-0036,Japan,71,Road
713 Stuart Way,Qujing,,,China,79585,Crossing
0 Montana Point,Mingshui,,,China,6738,Center
088 Clarendon Court,Jingmen,,,China,2570,Point
52645 Westerfield Place,Dembeni,,97660,Mayotte,07274,Way
82 Eagan Junction,Wenfang,,,China,72,Hill
978 Forest Dale Junction,Kabuynan,,8311,Philippines,902,Plaza
43 Hoffman Court,Solotcha,,391133,Russia,108,Junction
647 Superior Parkway,Svetogorsk,,188992,Russia,86904,Hill
78704 La Follette Street,Mari,,58345-000,Brazil,444,Pass
6254 Manufacturers Drive,Chiguata,,,Peru,60,Way
50 Fallview Street,Boroon,,9201,Philippines,93,Junction
6958 Elmside Terrace,Jambuwerkrajan,,,Indonesia,801,Way
93061 Boyd Parkway,Carregal,Aveiro,3800-854,Portugal,5,Junction
6 Hoard Street,Ořechov,,594 52,Czech Republic,46627,Point
33 Independence Alley,Villanueva,,9002,Philippines,01648,Pass
1949 Huxley Alley,Tongyuanpu,,,China,95,Road
55 Toban Trail,Kauhan,,,Indonesia,47,Pass
6 Nobel Plaza,Koltubanovskiy,,446521,Russia,139,Park
24775 Parkside Lane,Pedro Sánchez,,10514,Dominican Republic,23546,Place
27 Pine View Junction,Rangxi,,,China,36970,Parkway
16 Amoth Plaza,Uherské Hradiště,,686 05,Czech Republic,43756,Pass
1404 Reinke Center,Kimry,,171508,Russia,1503,Center
650 Annamark Street,Kamionka Wielka,,33-334,Poland,9912,Park
45 Buena Vista Junction,Araçatuba,,16000-000,Brazil,65157,Drive
38 Heath Trail,Brampton,England,NR34,United Kingdom,1,Street
19501 Westerfield Alley,Cumba,,,Peru,7819,Plaza
417 Derek Center,Saseel,,,Indonesia,81,Road
05 Petterle Place,Chixi,,,China,146,Court
159 Forest Plaza,Pasiragung,,,Indonesia,8,Court
708 Sundown Place,Torbay,Newfoundland and Labrador,A1K,Canada,1146,Center
8 Lawn Avenue,Pregonero,,,Venezuela,37,Drive
50583 Bunting Point,Xin’e,,,China,2359,Way
6311 High Crossing Plaza,Sannikovo,,658059,Russia,3,Trail
06 Sachtjen Avenue,Qiting,,,China,2367,Court
34104 Mayfield Center,Colquemarca,,,Peru,32,Alley
04 Holmberg Trail,Muarabadak,,,Indonesia,9425,Road
6 Mosinee Alley,Carmen,,9408,Philippines,767,Trail
18732 Thierer Circle,Le Mans,Pays de la Loire,72080 CEDEX 9,France,3,Point
080 Kings Hill,Jarigue,,9407,Philippines,15,Court
098 Melrose Place,Yelizavetinskoye,,356407,Russia,567,Alley
82428 Brown Terrace,Sathon,,10130,Thailand,44,Place
16 Dennis Avenue,Palpalá,,4612,Argentina,1,Place
72 Pennsylvania Terrace,Xiheshan,,,China,5,Parkway
8 Elgar Park,El Tambo,,522068,Colombia,90306,Circle
79737 Troy Pass,Atamyrat,,,Turkmenistan,435,Point
14709 Melody Trail,Da’an,,,China,45,Circle
0885 Bellgrove Lane,Khōshāmand,,,Afghanistan,22,Road
8 Oxford Court,Rivadavia,,3081,Argentina,903,Crossing
04807 Westerfield Hill,Shiye,,,China,84,Place
31404 Spohn Park,Huangbizhuang,,,China,6,Drive
96 Sundown Court,Pittsburgh,Pennsylvania,15240,United States,0,Terrace
0 Northfield Terrace,Obršani,,7509,Macedonia,43280,Trail
0348 Mariners Cove Point,Old City,,,Palestinian Territory,584,Drive
186 Buena Vista Drive,Pantijan No 2,,4133,Philippines,1,Lane
681 Menomonie Way,Alvarães,,69475-000,Brazil,03586,Crossing
7 Elgar Avenue,Kembangkerang Satu,,,Indonesia,3354,Place
5936 Kipling Center,Palestina,,6037,Philippines,8,Place
27 Vera Hill,Chengtou,,,China,44,Street
583 Buell Drive,Stockholm,Stockholm,101 56,Sweden,60127,Trail
79 Oakridge Alley,San Miguel,,10302,Costa Rica,235,Place
89919 Eliot Center,Meijiang,,,China,9462,Circle
9242 Novick Junction,Ban Phai,,40110,Thailand,551,Park
257 Commercial Terrace,Damanhūr,,,Egypt,14373,Lane
5379 Straubel Circle,Rudnichnyy,,307505,Russia,4,Trail
4 Springview Court,Arnprior,Ontario,K7S,Canada,81,Center
74 Mesta Drive,Koygorodok,,168170,Russia,5,Terrace
050 Glacier Hill Trail,Krajanbaturno,,,Indonesia,188,Plaza
06565 North Plaza,Nanlang,,,China,7,Center
0 Anthes Drive,Cateel,,9220,Philippines,91895,Pass
045 Marquette Street,Genzi,,,China,63984,Junction
466 Bunker Hill Hill,Oratorio,,06006,Guatemala,337,Park
592 4th Center,Qibu,,,China,610,Lane
95733 Hanson Center,Lyudinovo,,249406,Russia,07,Trail
691 Lake View Center,Luokou,,,China,28697,Drive
32920 Loeprich Drive,Komatsu,,999-8317,Japan,7461,Drive
9884 Helena Terrace,Lammi,,16901,Finland,56,Court
008 Mcguire Parkway,Säffle,Värmland,661 31,Sweden,8627,Court
11502 Washington Trail,Dusit,,10300,Thailand,54,Junction
7 Luster Avenue,Zdovbytsya,,,Ukraine,78,Crossing
2 Becker Terrace,Františkovy Lázně,,351 01,Czech Republic,3,Center
41213 Eagan Plaza,Kiryū,,379-2314,Japan,943,Street
2010 Warner Crossing,Nong Muang,,15170,Thailand,7547,Trail
6984 Golden Leaf Drive,Jalasenga,,,Indonesia,01,Trail
315 American Ash Way,Magsalangi,,2624,Philippines,73,Drive
6232 Mcguire Road,Jingu,,,China,352,Road
93 Pankratz Parkway,Haitang,,,China,5,Plaza
5211 Grayhawk Pass,Aībak,,,Afghanistan,23,Road
04 Barby Junction,Sevan,,,Armenia,65,Place
0 Bay Terrace,Black River,,,Jamaica,70,Hill
039 Rockefeller Circle,Malichang,,,China,40598,Center
9 Park Meadow Circle,"Coruña, A",Galicia,15190,Spain,46618,Road
93 Sunbrook Center,San Casimiro,,4332,Philippines,80,Hill
4011 Huxley Hill,Sampagar,,1160,Philippines,25,Trail
0689 Fulton Parkway,Ganlin,,,China,529,Drive
43 Maple Way,Novomichurinsk,,216464,Russia,71168,Way
01 Iowa Lane,Tanggulangin,,,Indonesia,841,Street
207 Corben Center,Karlskoga,Örebro,691 26,Sweden,96291,Terrace
06 Barby Avenue,Amieirinha,Leiria,2430-024,Portugal,970,Terrace
58 Birchwood Place,Cofimvaba,,5382,South Africa,6,Avenue
69 West Parkway,Gitega,,,Burundi,90921,Drive
3 Corscot Lane,Ribeirão da Ilha,,38530-000,Brazil,3,Plaza
449 Heath Center,Fengyang,,,China,49972,Lane
72556 Clarendon Place,Puračić,,,Bosnia and Herzegovina,8,Court
15 Maple Wood Circle,Dalsjöfors,Västra Götaland,516 31,Sweden,241,Street
254 Pepper Wood Center,Muye,,,China,88,Drive
4410 Clemons Hill,Khawr Fakkān,,,United Arab Emirates,46,Court
745 Old Shore Center,Panjir,,,Indonesia,7884,Pass
3 Heffernan Alley,Uberlândia,,38400-000,Brazil,85238,Road
24143 Monica Alley,Brudzew,,62-720,Poland,10721,Crossing
48 Logan Plaza,Petaluma,California,94975,United States,8751,Way
87931 Manley Avenue,Mukařov,,411 45,Czech Republic,4,Drive
7 Brickson Park Parkway,Gampaha,,11000,Sri Lanka,039,Park
68375 Iowa Center,Shanhe,,,China,05,Junction
28 La Follette Junction,Bestovje,,10437,Croatia,708,Junction
683 Warbler Trail,Guzhuyingzi,,,China,67570,Avenue
0482 Sheridan Center,Pedreira,,13920-000,Brazil,1,Pass
483 Oneill Parkway,Nikol’skoye,,678214,Russia,1,Road
18 Mandrake Hill,Helmsange,,L-7270,Luxembourg,80599,Lane
7185 Holmberg Drive,Ongabelen,,,Indonesia,3122,Park
2267 Reinke Parkway,Al Qaţn,,,Yemen,4,Way
646 Gateway Junction,Athi River,,,Kenya,41,Crossing
30 Dahle Court,Dihtyari,,,Ukraine,195,Place
0046 Dixon Park,Tekeli,,,Kazakhstan,7680,Terrace
46539 Esch Drive,Rogowo,,88-420,Poland,559,Terrace
95 Kedzie Circle,Hōjō,,799-2441,Japan,76104,Place
9 Bartillon Hill,Sa Bot,,15240,Thailand,7865,Pass
436 Eliot Lane,Qinggang,,,China,51727,Crossing
4684 Mendota Court,Sufang,,,China,89431,Street
5 Mosinee Drive,Kamenka,,412378,Russia,87,Plaza
26 Weeping Birch Drive,Campo,Braga,4715-477,Portugal,5890,Junction
9 Mcguire Crossing,Arendal,Aust-Agder,4808,Norway,1,Way
01 Toban Road,Xiaozhoushan,,,China,675,Hill
1942 8th Pass,Kampánis,,,Greece,0761,Parkway
2 Farragut Drive,Shīrvān,,,Iran,44,Crossing
0 Schmedeman Park,Kuantan,Pahang,25532,Malaysia,740,Junction
4 Glendale Plaza,Tsapêraī,,,Afghanistan,574,Pass
96699 Portage Point,Aginskoye,,663580,Russia,75646,Drive
87 Crowley Court,Locminé,Bretagne,56504 CEDEX,France,059,Hill
289 Graedel Way,Gongnong,,,China,9,Crossing
1963 Manufacturers Alley,Kokkini Trimithia,,,Cyprus,935,Road
6997 Lake View Junction,Riyom,,,Nigeria,21,Alley
8989 Glacier Hill Center,Čejkovice,,671 65,Czech Republic,56,Parkway
6652 Granby Hill,Citeguh,,,Indonesia,36527,Place
655 Dayton Hill,Fresno,,731568,Colombia,888,Crossing
617 6th Circle,Cikulina,,,Indonesia,52001,Pass
37 Green Crossing,San Francisco,Veracruz Llave,95710,Mexico,881,Court
7 Swallow Park,Hekou,,,China,74,Road
73020 Pierstorff Place,Sanlidian,,,China,991,Junction
2961 Miller Park,Linzi,,,China,210,Terrace
06 Linden Pass,Vale Mourão,Lisboa,2635-466,Portugal,4666,Road
93 Susan Trail,Gbarnga,,,Liberia,81249,Pass
82879 Oak Court,Baiqiao,,,China,2824,Pass
402 Ludington Parkway,Soritor,,,Peru,38,Place
6 Hayes Drive,Rāiwind,,55150,Pakistan,8,Terrace
368 Glacier Hill Parkway,Ilhabela,,11630-000,Brazil,3,Lane
074 Elgar Court,Agana Heights Village,,96929,Guam,28299,Street
7474 New Castle Parkway,Prelog,,40323,Croatia,88,Crossing
3 6th Hill,Madala,,,Nigeria,0346,Hill
9 Bunker Hill Place,Kilcullen,,Y25,Ireland,735,Center
965 Waxwing Center,Panjakent,,,Tajikistan,276,Avenue
8 Northfield Lane,Xiaozhi,,,China,98462,Place
83172 Old Gate Avenue,Shekou,,,China,9,Avenue
5 South Drive,Kohtla-Järve,,,Estonia,84296,Place
3327 Acker Hill,Béthune,Nord-Pas-de-Calais,62404 CEDEX,France,958,Crossing
9 Morrow Junction,Satu Nou,Vaslui,737513,Romania,8,Court
4828 Bluestem Terrace,Newark,Delaware,19714,United States,9,Place
1 Arkansas Way,Qiangqinxue,,,China,28,Street
4197 Norway Maple Junction,Kuantan,Pahang,25610,Malaysia,637,Street
31 Eggendart Alley,Fuyu,,,China,680,Street
25 Schurz Alley,Makale,,,Indonesia,23548,Road
18747 La Follette Crossing,Murcia,Murcia,30010,Spain,398,Way
2474 Muir Point,Nangger,,,Indonesia,0,Center
0 Eagle Crest Pass,General Pico,,6360,Argentina,53526,Drive
28 Gateway Place,Kertayuga,,,Indonesia,76,Hill
247 Mockingbird Park,Dongda,,,China,6,Center
06249 Tomscot Park,Goiás,,76600-000,Brazil,80,Park
94 Rowland Court,Moramanga,,,Madagascar,7,Parkway
14499 Emmet Lane,Hrtkovci,,,Serbia,55,Lane
0 Glendale Parkway,Biwer,,L-6834,Luxembourg,694,Crossing
7999 Westport Center,Balugo,,1001,Philippines,10,Lane
7510 Vernon Point,Tiegai,,,China,462,Plaza
9 Maple Pass,Turkestan,,,Kazakhstan,72,Pass
91281 Hanson Point,Donji Dobrić,,,Serbia,2,Way
27 Shasta Hill,Teongtoda,,,Indonesia,2240,Lane
2990 Ridge Oak Way,Coris,,,Peru,16077,Alley
46217 Center Center,Ŭiju,,,North Korea,1981,Pass
041 Merry Point,Lenger,,,Kazakhstan,73,Point
605 Carioca Way,Além Paraíba,,36660-000,Brazil,809,Circle
60986 Linden Plaza,Baz,,,Albania,96206,Trail
7 Express Point,La Laja,,,Chile,63,Drive
58233 Sunnyside Lane,Kristinehamn,Värmland,681 54,Sweden,065,Avenue
11788 Green Park,Hirado,,276-0017,Japan,5198,Trail
526 Luster Plaza,Annaka,,379-0116,Japan,48895,Avenue
8593 Sheridan Street,Calais,Nord-Pas-de-Calais,62907 CEDEX,France,0,Crossing
525 Lukken Crossing,Azovo,,646880,Russia,68,Avenue
2 Main Drive,Mogi Mirim,,13800-000,Brazil,96,Drive
1 Paget Parkway,Carmelo,,9212,Philippines,35,Center
8 Clove Junction,Maguan,,,Indonesia,5,Circle
14 Independence Plaza,Quimbaya,,634027,Colombia,580,Avenue
146 Northport Center,Waiholo,,,Indonesia,015,Court
124 Bartillon Park,Jönköping,Jönköping,553 33,Sweden,2238,Junction
0946 Welch Hill,Kamsack,Saskatchewan,R2J,Canada,563,Pass
52 La Follette Park,Ondoy,,5607,Philippines,685,Terrace
183 Lunder Terrace,Qaryat ad Da‘īs,,,Yemen,5,Point
80 Sycamore Alley,Santa Catalina,,,Venezuela,94231,Crossing
6 Bellgrove Hill,Darenzhuang,,,China,942,Trail
4819 Helena Park,Bukbatang,,,Indonesia,88339,Circle
39712 Artisan Park,Ishikari,,637-0404,Japan,422,Plaza
873 Valley Edge Alley,Parobé,,95630-000,Brazil,55,Circle
4 Mccormick Plaza,Wiang Chiang Rung,,57210,Thailand,5,Circle
95 Muir Hill,Nagbacalan,,2902,Philippines,17,Pass
44 Stoughton Alley,Malvas,,,Peru,4076,Terrace
16504 Morrow Center,Mamonit,,2304,Philippines,968,Way
927 Vidon Circle,Videm pri Ptuju,,2284,Slovenia,57301,Parkway
8 Rigney Road,Artemisa,,,Cuba,9,Street
8452 Crest Line Park,Energeticheskiy,,,Kazakhstan,1,Alley
79539 John Wall Junction,Iznoski,,658476,Russia,90,Street
908 Pearson Point,Algés,Lisboa,1495-005,Portugal,3,Alley
0 Upham Circle,Derhachi,,,Ukraine,169,Hill
6 Johnson Trail,Osiek,,87-340,Poland,5,Lane
3 Thackeray Road,Benešov,,679 53,Czech Republic,9913,Crossing
04 Crest Line Drive,Acandí,,278018,Colombia,8,Parkway
3503 Holmberg Parkway,Mancagahar,,,Indonesia,0,Crossing
624 Basil Crossing,Maguan,,,China,166,Alley
62500 Sage Junction,Barrancas,,,Venezuela,44,Junction
27 Fieldstone Circle,Lyon,Rhône-Alpes,69406 CEDEX 03,France,7,Lane
211 Pawling Terrace,Grujugan,,,Indonesia,36,Point
988 Grayhawk Lane,Aţ Ţurrah,,,Jordan,7000,Junction
409 Northland Trail,Iwata,,925-0145,Japan,92,Pass
5 Elka Terrace,Kavieng,,,Papua New Guinea,1235,Hill
18 Cardinal Terrace,Skópelos,,,Greece,4,Center
4483 Erie Road,Godziszów Pierwszy,,23-302,Poland,803,Terrace
74 Fairfield Point,Villach,Kaernten,9580,Austria,62915,Park
70 Straubel Plaza,Washington,District of Columbia,56944,United States,01160,Drive
746 Jenifer Road,L'viv,,,Ukraine,714,Junction
28 Evergreen Avenue,Czchów,,32-860,Poland,142,Lane
38119 Vermont Street,Oklahoma City,Oklahoma,73129,United States,4,Plaza
492 Carberry Junction,Pendembu,,,Sierra Leone,9874,Plaza
74 3rd Center,Morales,,18004,Guatemala,29141,Circle
07820 Utah Plaza,Quillabamba,,,Peru,1,Way
743 Mandrake Trail,Ellinikó,,,Greece,8204,Park
39479 Mcbride Point,Barakani,,,Comoros,3,Way
2 Lerdahl Street,Klang,Selangor,41720,Malaysia,47,Drive
18006 Scofield Center,Pukou,,,China,6573,Crossing
0171 Autumn Leaf Trail,Banjar Tiga,,,Indonesia,32671,Center
972 Summit Plaza,Shipaidong,,,China,92594,Center
68283 Meadow Vale Avenue,Pasar Kulon,,,Indonesia,53167,Plaza
4470 Florence Center,Necoclí,,057878,Colombia,85,Drive
8 Sachtjen Circle,Independencia,Michoacan De Ocampo,60070,Mexico,53155,Parkway
580 Trailsway Crossing,Jiangyin,,,China,57,Crossing
307 Carey Place,Jombang,,,Indonesia,925,Avenue
2043 Anniversary Terrace,Al Ḩarf,,,Yemen,72,Way
78405 Rockefeller Way,Marull,,5139,Argentina,1,Court
9298 Cody Lane,Lindome,Västra Götaland,437 36,Sweden,8,Court
21703 Merchant Center,Akron,Ohio,44310,United States,7533,Alley
5685 Ridge Oak Place,Pułtusk,,06-102,Poland,955,Circle
19 Eggendart Place,Zhukovka,,242731,Russia,268,Road
526 Corry Junction,That Phanom,,48110,Thailand,6,Place
50463 Fairfield Point,Babice,,37-754,Poland,12,Lane
04 Canary Trail,Moquegua,,,Peru,97914,Way
38666 Tomscot Trail,Joaquín V. González,,4448,Argentina,60460,Junction
749 Fieldstone Park,Paôy Pêt,,,Cambodia,9,Junction
2 Heath Hill,Shangdongjie,,,China,61,Park
61 Upham Avenue,Qiaoxi,,,China,3069,Alley
8841 Hudson Terrace,Itu,,13300-000,Brazil,5478,Pass
4 Fordem Avenue,Baokou,,,China,17,Avenue
33945 Hooker Street,Beaumont,Texas,77705,United States,0,Drive
25 Maryland Plaza,Aulnay-sous-Bois,Île-de-France,93616 CEDEX,France,01,Terrace
41976 Mcbride Crossing,Capilla del Monte,,5184,Argentina,03,Crossing
60683 7th Hill,Molde,More og Romdal,6413,Norway,4,Drive
1 Ridgeway Alley,Horqueta,,,Paraguay,707,Way
34984 School Circle,Jinchuan,,,China,3,Place
6945 Spohn Pass,Buchlovice,,687 08,Czech Republic,7,Park
064 Meadow Vale Terrace,Kedungwringin,,,Indonesia,895,Road
89073 Redwing Center,Trà Vinh,,,Vietnam,9868,Junction
8933 Melrose Way,Qincheng,,,China,48446,Junction
759 Twin Pines Lane,Wanghu,,,China,34,Road
2 Thackeray Place,Horokhiv,,,Ukraine,2,Drive
37 Park Meadow Center,Sherbrooke,Québec,J1K,Canada,7107,Alley
60583 Columbus Drive,Xianxi,,,China,33,Park
54045 Dwight Lane,Skuratovskiy,,301070,Russia,541,Terrace
904 Badeau Drive,Chikushino-shi,,818-0138,Japan,61,Lane
427 Dwight Road,Firmat,,2630,Argentina,221,Avenue
86180 Ryan Pass,Sidu,,,China,118,Drive
455 Prairie Rose Circle,Xiangshan,,,China,26289,Drive
7 Forest Run Plaza,Xiongshan,,,China,87,Way
66 Superior Drive,San Antonio,Oaxaca,71200,Mexico,52,Crossing
42926 Holy Cross Circle,Mercedes,,3470,Argentina,7,Circle
08941 Linden Street,Bachaquero,,,Venezuela,269,Plaza
1 Judy Trail,Qingyang,,,China,3,Trail
79616 Melvin Terrace,Ambovombe,,,Madagascar,43449,Lane
59 Grover Court,Panimbang,,,Indonesia,929,Alley
605 Rieder Lane,Monte Novo,Beja,7780-256,Portugal,93239,Alley
1210 Grayhawk Street,Hīsh,,,Syria,42098,Point
44 Green Alley,Radojevo,,,Serbia,467,Crossing
7 Village Circle,Silveiros,Braga,4775-224,Portugal,786,Way
0820 Laurel Hill,Akim Oda,,,Ghana,9,Avenue
4 Hanson Crossing,Gonghe,,,China,9,Crossing
438 Ridge Oak Lane,Artsvanist,,,Armenia,501,Street
7 Warbler Avenue,Fontana,,3514,Argentina,3625,Trail
1244 Elmside Hill,Senador Pompeu,,63600-000,Brazil,2427,Park
4041 Green Road,Gramoteino,,652660,Russia,033,Hill
586 2nd Road,Vsevolozhsk,,188649,Russia,86,Pass
215 Rusk Court,Fengjiang,,,China,510,Place
342 Victoria Hill,Batur Kidul,,,Indonesia,52482,Trail
06944 East Lane,Thị Trấn Sìn Hồ,,,Vietnam,0948,Place
7 Monument Center,Tamot,,93160,Thailand,1235,Circle
6407 Fieldstone Pass,Cañas,,50601,Costa Rica,0197,Road
63831 Corscot Avenue,Yatunpu,,,China,11825,Trail
704 Eliot Lane,Bunder,,,Indonesia,1529,Court
54053 Loeprich Alley,Perushtitsa,,4225,Bulgaria,0,Circle
86 Rowland Place,Zaklików,,37-470,Poland,78962,Junction
98227 Messerschmidt Lane,Dzerzhinsk,,664511,Russia,2,Pass
40 Norway Maple Junction,Longtian,,,China,394,Drive
875 Spenser Way,Duqiong,,,China,5069,Circle
862 Manufacturers Road,Hedao,,,China,7978,Circle
9 Oriole Junction,Rennes,Bretagne,35087 CEDEX,France,84,Point
37 Granby Lane,Payxambabazar,,,China,614,Park
6699 Fisk Place,Huaquillas,,,Ecuador,2244,Court
297 Canary Trail,Lagoa do Itaenga,,55840-000,Brazil,68,Plaza
9305 Di Loreto Circle,Vargem Grande do Sul,,13880-000,Brazil,96,Junction
969 1st Crossing,Atafu Village,,,Tokelau,4,Crossing
627 Monument Place,Pakuncen,,,Indonesia,2978,Crossing
7762 Oak Trail,Starodub,,243240,Russia,4975,Parkway
32366 Holmberg Terrace,Kakaek,,,Indonesia,561,Center
03 Jenifer Park,Rudna Mała,,36-062,Poland,0678,Hill
89754 Golf Junction,Piteå,Norrbotten,941 22,Sweden,0431,Street
94611 Carpenter Way,Ruixi,,,China,10,Terrace
158 Sunnyside Place,Fengchan,,,China,0506,Court
348 Bashford Crossing,Orsha,,170513,Russia,71,Junction
16 Briar Crest Circle,Metz,Lorraine,57032 CEDEX 01,France,7,Pass
33 Bultman Pass,Santa Maria,Mexico,51009,Mexico,58904,Avenue
831 Pond Drive,Pamoyanan,,,Indonesia,0,Place
210 Mallard Road,Pępowo,,63-830,Poland,332,Plaza
0482 Ramsey Alley,Bureya,,676701,Russia,48,Street
3345 Reinke Trail,Andong,,,South Korea,0,Court
5513 Mcguire Center,Guangang,,,China,5655,Plaza
58163 Dixon Terrace,Zyukayka,,617110,Russia,75687,Place
57 Sloan Plaza,Shijie,,,China,2941,Point
3 Cody Crossing,Baiyang,,,China,37663,Circle
176 Brown Place,Longtian,,,China,72,Trail
2757 Maple Wood Avenue,Pictou,Nova Scotia,M1M,Canada,7,Way
1 Badeau Lane,Mandōl,,,Afghanistan,1,Park
